{"type": "FeatureCollection", "features": [{"type": "Feature", "geometry": {"type": "Point", "coordinates": [21.0270315, 69.7719891]}, "properties": {"id": 774095919, "amenity": "fuel", "branch": "Storslett", "brand": "Circle K", "brand:wikidata": "Q3268010", "car_wash": "yes", "email": "54332@circlekeurope.com", "fuel:HGV_diesel": "yes", "fuel:adblue": "yes", "fuel:diesel": "yes", "fuel:octane_95": "yes", "fuel:propane": "yes", "fuel:taxfree_diesel": "yes", "hgv": "yes", "man_made": "surveillance", "name": "Circle K Storslett", "opening_hours": "Mo-Fr 07:00-22:00, Sa 08:00-22:00, Su 09:00-23:00", "phone": "+4777770333", "ref:circlek": "54332", "surveillance": "outdoor", "trailer:rental": "yes", "data_source": "planet_osm"}}, {"type": "Feature", "geometry": {"type": "Point", "coordinates": [21.004003, 69.768589]}, "properties": {"id": 805981542, "branch": "Storslett", "brand": "Spar", "brand:wikidata": "Q610492", "email": "spar.storslett@spar.no", "man_made": "surveillance", "name": "Spar Storslett", "opening_hours": "Mo-Sa 07:00-23:00", "phone": "+47 77764800", "ref:norgesgruppen": "959181", "shop": "supermarket", "surveillance": "indoor", "data_source": "planet_osm"}}, {"type": "Feature", "geometry": {"type": "Point", "coordinates": [21.024076, 69.769209]}, "properties": {"id": 805981561, "branch": "Storslett", "brand": "Extra", "brand:wikidata": "Q11964085", "man_made": "surveillance", "name": "Extra Storslett", "opening_hours": "Mo-Sa 07:00-23:00", "ref:coop": "1954", "shop": "supermarket", "surveillance": "indoor", "data_source": "planet_osm"}}, {"type": "Feature", "geometry": {"type": "Point", "coordinates": [21.00796, 69.768245]}, "properties": {"id": 805981581, "branch": "Storslett", "brand": "Rema 1000", "brand:wikidata": "Q28459", "email": "storslett@rema.no", "man_made": "surveillance", "name": "Rema 1000 Storslett", "opening_hours": "Mo-Sa 07:00-23:00", "phone": "+47 77764868", "ref:rema": "2091987", "shop": "supermarket", "surveillance": "indoor", "data_source": "planet_osm"}}], "networks": []}