{"type": "FeatureCollection", "features": [{"type": "Feature", "geometry": {"type": "Point", "coordinates": [16.2492728, 47.8965524]}, "properties": {"id": 340516267, "addr:city": "Sollenau", "addr:housenumber": "9", "addr:postcode": "2601", "addr:street": "Hauptplatz", "amenity": "post_office", "man_made": "surveillance", "name": "Post Filiale 2601", "opening_hours": "Mo-Fr 08:00-12:00, 14:00-17:30; Sa,Su,PH off", "operator": "\u00d6sterreichische Post AG", "operator:wikidata": "Q1763505", "surveillance": "indoor", "website": "https://www.post.at", "data_source": "planet_osm"}}, {"type": "Feature", "geometry": {"type": "Point", "coordinates": [16.217181, 47.9304633]}, "properties": {"id": 340518819, "addr:city": "Leobersdorf", "addr:country": "AT", "addr:housenumber": "2", "addr:postcode": "2544", "addr:street": "Badener Stra\u00dfe", "amenity": "post_office", "man_made": "surveillance", "name": "Post Filiale 2544", "opening_hours": "Mo-Fr 08:00-12:00, 14:00-17:30; Sa,Su,PH off", "operator": "\u00d6sterreichische Post AG", "operator:wikidata": "Q1763505", "operator:wikipedia": "de:\u00d6sterreichische Post", "surveillance": "indoor", "website": "https://www.post.at", "data_source": "planet_osm"}}, {"type": "Feature", "geometry": {"type": "Point", "coordinates": [16.2596753, 47.943808]}, "properties": {"id": 340519891, "addr:city": "G\u00fcnselsdorf", "addr:housenumber": "1", "addr:postcode": "2525", "addr:street": "Europaplatz", "man_made": "surveillance", "name": "Nina's Lebensmittelladen", "opening_hours": "Mo-Fr 06:00-15:00", "operator": "Nina Z\u00f6chling", "phone": "+43 699 10626240", "post_office": "post_partner", "postal_code": "2525", "ref": "2525", "shop": "convenience", "surveillance": "indoor", "data_source": "planet_osm"}}, {"type": "Feature", "geometry": {"type": "Point", "coordinates": [16.238456, 47.8059626]}, "properties": {"id": 421373668, "brand": "PENNY", "brand:wikidata": "Q284688", "brand:wikipedia": "en:Penny (supermarket)", "man_made": "surveillance", "name": "PENNY", "operator": "Penny", "operator:wikidata": "Q284688", "shop": "supermarket", "surveillance": "indoor", "wheelchair": "yes", "data_source": "planet_osm"}}, {"type": "Feature", "geometry": {"type": "Point", "coordinates": [16.2609752, 47.9437105]}, "properties": {"id": 571973980, "addr:city": "G\u00fcnselsdorf", "addr:housenumber": "1", "addr:postcode": "2525", "addr:street": "Anton Rauch-Stra\u00dfe", "amenity": "bank", "atm": "yes", "bic": "RLNWATWWBAD", "branch": "Bankstelle G\u00fcnselsdorf", "brand": "Raiffeisen", "brand:wikidata": "Q2127528", "man_made": "surveillance", "name": "Raiffeisen", "operator": "Raiffeisenbank Region Baden", "surveillance": "indoor", "data_source": "planet_osm"}}, {"type": "Feature", "geometry": {"type": "Point", "coordinates": [16.2463299, 47.8303997]}, "properties": {"id": 1057808432, "addr:housenumber": "42", "addr:street": "Stadionstra\u00dfe", "amenity": "cinema", "contact:phone": "+43 2622 88822", "contact:website": "http://www.cineplexx.at/", "man_made": "surveillance", "name": "Cineplexx Wr. Neustadt", "surveillance": "indoor", "wheelchair": "yes", "wheelchair:description": "Schwere Eingangst\u00fcr mit automatischen T\u00fcrschlie\u00dfer. Behindertenklo nicht angeschrieben- jedoch am anderen Ende vom Komplex im Erdgeschoss vorhanden (gro\u00dfr\u00e4umig, Waschbecken unterfahrbar). Kinos\u00e4le und Klos befinden sich im ersten Stock- um in den ersten", "data_source": "planet_osm"}}, {"type": "Feature", "geometry": {"type": "Point", "coordinates": [16.2051138, 47.930373]}, "properties": {"id": 1126567927, "addr:city": "Leobersdorf", "addr:country": "AT", "addr:housenumber": "5", "addr:postcode": "2544", "addr:street": "Europastra\u00dfe", "brand": "dm", "brand:wikidata": "Q266572", "brand:wikipedia": "en:Dm-drogerie markt", "check_date": "2023-08-12", "man_made": "surveillance", "name": "dm", "opening_hours": "Mo-Fr 08:00-19:00; Sa 08:00-17:00", "phone": "+43225620380", "shop": "chemist", "surveillance": "indoor", "data_source": "planet_osm"}}, {"type": "Feature", "geometry": {"type": "Point", "coordinates": [16.216884, 47.9294152]}, "properties": {"id": 1418184566, "access": "customers", "amenity": "parking_entrance", "barrier": "lift_gate", "charge": "1.40 EUR/hour", "description": "1h gratis parken", "fee": "yes", "fee:conditional": "no @ (stay < 1 hours)", "man_made": "surveillance", "maxheight": "2.1", "name": "Tiefgarage Passage", "opening_hours": "24/7", "parking": "underground", "surveillance": "indoor", "data_source": "planet_osm"}}, {"type": "Feature", "geometry": {"type": "Point", "coordinates": [16.2571423, 47.8243357]}, "properties": {"id": 1577913142, "brand": "Billa Plus", "brand:wikidata": "Q115431077", "brand:wikipedia": "de:Billa", "level": "0", "man_made": "surveillance", "name": "Billa Plus", "old_name": "Merkur", "opening_hours": "Mo-Th 07:00-19:00; Fr 07:00-20:00; Sa 07:00-18:00; PH off", "shop": "supermarket", "surveillance": "indoor", "website": "https://www.billa.at", "wheelchair": "yes", "wheelchair:description": "Artikel au\u00dferhalb des gro\u00dfen Greifraumes in den Regalen nicht erreichbar keine Einkaufsw\u00e4gen f\u00fcr Rollstuhlfahrer", "data_source": "planet_osm"}}, {"type": "Feature", "geometry": {"type": "Point", "coordinates": [16.2175616, 47.8217048]}, "properties": {"id": 1598337974, "addr:city": "Wiener Neustadt", "addr:housenumber": "17a", "addr:postcode": "2700", "addr:street": "Josef-Feichtinger-Gasse", "amenity": "restaurant", "cuisine": "asian,chinese", "delivery": "yes", "man_made": "surveillance", "name": "Wokhaus Fu Cheng", "opening_hours": "Mo-Sa 11:00-22:00", "outdoor_seating": "no", "payment:cash": "yes", "payment:debit_cards": "yes", "phone": "+43262283052", "reservation": "yes", "smoking": "no", "surveillance": "indoor", "takeaway": "yes", "data_source": "planet_osm"}}, {"type": "Feature", "geometry": {"type": "Point", "coordinates": [16.2386543, 47.8040358]}, "properties": {"id": 1788570116, "amenity": "bank", "man_made": "surveillance", "name": "Sparkasse", "opening_hours": "Mo-Fr 08:30-12:30,13:30-15:30", "surveillance": "indoor", "wheelchair": "yes", "data_source": "planet_osm"}}, {"type": "Feature", "geometry": {"type": "Point", "coordinates": [16.2434704, 47.8165829]}, "properties": {"id": 1821252579, "addr:city": "Wiener Neustadt", "addr:housenumber": "6", "addr:postcode": "2700", "addr:street": "Baumkirchnerring", "amenity": "bank", "bic": "BAWAATWWXXX", "brand": "BAWAG PSK", "brand:wikidata": "Q379938", "brand:wikipedia": "en:BAWAG P.S.K.", "drive_through": "no", "man_made": "surveillance", "name": "BAWAG PSK", "opening_hours": "Mo-Fr 09:00-17:00; Sa,Su,PH off", "operator": "BAWAG PSK AG", "surveillance": "indoor", "data_source": "planet_osm"}}, {"type": "Feature", "geometry": {"type": "Point", "coordinates": [16.2569934, 47.8239034]}, "properties": {"id": 1906942806, "amenity": "pharmacy", "healthcare": "pharmacy", "man_made": "surveillance", "name": "Merkur-Apotheke", "opening_hours": "Mo-Sa 08:30-18:00", "surveillance": "indoor", "wheelchair": "yes", "data_source": "planet_osm"}}, {"type": "Feature", "geometry": {"type": "Point", "coordinates": [16.2054076, 47.9305248]}, "properties": {"id": 1983997368, "man_made": "surveillance", "name": "Schrahb\u00f6ck", "opening_hours": "Mo-Fr 09:00-18:00; Sa 09:00-17:00", "shop": "toys", "surveillance": "indoor", "data_source": "planet_osm"}}, {"type": "Feature", "geometry": {"type": "Point", "coordinates": [16.2451517, 47.8136138]}, "properties": {"id": 2163167488, "addr:city": "Wiener Neustadt", "addr:country": "AT", "addr:housenumber": "4-6", "addr:postcode": "2700", "addr:street": "Gr\u00fcbelgasse", "brand": "Billa", "brand:wikidata": "Q537781", "brand:wikipedia": "de:Billa", "man_made": "surveillance", "name": "Billa", "opening_hours": "Mo-Fr 7:15-19:30, Sa 7:15-18:00, Su, PH off", "operator": "Billa", "phone": "+43262228317", "shop": "supermarket", "surveillance": "indoor", "website": "https://www.billa.at/", "wheelchair": "yes", "data_source": "planet_osm"}}, {"type": "Feature", "geometry": {"type": "Point", "coordinates": [16.2496432, 47.897192]}, "properties": {"id": 2178212309, "addr:housenumber": "4", "addr:postcode": "2601", "addr:street": "Hauptplatz", "amenity": "bank", "atm": "yes", "branch": "Sollenau", "brand": "Raiffeisen", "brand:wikidata": "Q2127528", "man_made": "surveillance", "name": "Raiffeisenbank Wr. Neustadt-Schneebergland", "operator": "Raiffeisenbank Wr. Neustadt-Schneebergland", "surveillance": "indoor", "wheelchair": "yes", "data_source": "planet_osm"}}, {"type": "Feature", "geometry": {"type": "Point", "coordinates": [16.2173584, 47.9300346]}, "properties": {"id": 2270619468, "access": "yes", "amenity": "parking", "charge": "1 EUR/hour", "fee": "yes", "fee:conditional": "no @ (stay < 0.5 hours)", "level": "0", "man_made": "surveillance", "note": "Erdgescho\u00df im Geb\u00e4ude", "parking": "surface", "surveillance": "indoor", "data_source": "planet_osm"}}, {"type": "Feature", "geometry": {"type": "Point", "coordinates": [16.1784517, 47.9311948]}, "properties": {"id": 2393160788, "amenity": "bank", "atm": "yes", "bic": "SPPOAT21XXX", "branch": "Hirtenberg", "brand": "Sparkasse", "man_made": "surveillance", "name": "Sparkasse Pottenstein N.\u00d6.", "operator": "Sparkasse Pottenstein N.\u00d6.", "surveillance": "indoor", "wheelchair": "no", "data_source": "planet_osm"}}, {"type": "Feature", "geometry": {"type": "Point", "coordinates": [16.2165033, 47.9294689]}, "properties": {"id": 2450421498, "addr:city": "Leobersdorf", "addr:country": "AT", "addr:housenumber": "4", "addr:postcode": "2544", "addr:street": "Hauptstra\u00dfe", "brand": "Spar", "brand:wikidata": "Q610492", "brand:wikipedia": "en:SPAR (retailer)", "email": "eh40939@sparmarkt.at", "man_made": "surveillance", "name": "Spar", "opening_hours": "Mo-Fr 07:00-18:00; Sa 07:00-17:00", "operator": "Peter Springsits", "phone": "+43 2256 62605", "shop": "supermarket", "surveillance": "indoor", "website": "https://www.spar.at/standorte/spar-leobersdorf-2544-hauptstrasse-4", "wheelchair": "yes", "data_source": "planet_osm"}}, {"type": "Feature", "geometry": {"type": "Point", "coordinates": [16.2163935, 47.9288728]}, "properties": {"id": 2450697124, "addr:city": "Leobersdorf", "addr:country": "AT", "addr:housenumber": "12", "addr:postcode": "2544", "addr:street": "Hauptstra\u00dfe", "brand": "Bipa", "brand:wikidata": "Q864933", "brand:wikipedia": "de:Bipa", "man_made": "surveillance", "name": "Bipa", "opening_hours": "Mo-Fr 08:00-19:00; Sa 08:00-18:00", "phone": "+43 59913 03848", "shop": "chemist", "surveillance": "indoor", "website": "https://www.bipa.at", "wheelchair": "yes", "data_source": "planet_osm"}}, {"type": "Feature", "geometry": {"type": "Point", "coordinates": [16.2168257, 47.9298483]}, "properties": {"id": 2450697216, "amenity": "bank", "atm": "yes", "bic": "RZBAATWWXXX", "branch": "Bankstelle Leobersdorf", "brand": "Raiffeisen", "brand:wikidata": "Q2127528", "man_made": "surveillance", "name": "Raiffeisen", "operator": "Raiffeisenbank Region Baden", "surveillance": "indoor", "data_source": "planet_osm"}}, {"type": "Feature", "geometry": {"type": "Point", "coordinates": [16.2168338, 47.9305182]}, "properties": {"id": 2450697218, "amenity": "bank", "atm": "yes", "bic": "SPBDAT21XXX", "branch": "Leobersdorf", "brand": "Sparkasse", "man_made": "surveillance", "name": "Sparkasse Baden", "operator": "Sparkasse Baden", "surveillance": "indoor", "data_source": "planet_osm"}}, {"type": "Feature", "geometry": {"type": "Point", "coordinates": [16.2163273, 47.9286233]}, "properties": {"id": 2450697221, "addr:city": "Leobersdorf", "addr:country": "AT", "addr:housenumber": "16", "addr:postcode": "2544", "addr:street": "Hauptstra\u00dfe", "amenity": "bank", "atm": "yes", "bic": "VBOEATWWXXX", "brand": "Volksbank", "brand:wikidata": "Q695110", "brand:wikipedia": "en:Volksbank", "drive_through": "no", "man_made": "surveillance", "name": "Volksbank", "opening_hours": "Mo-We 08:00-12:00; Fr 08:00-12:00; Th 08:00-12:00,13:30-17:00; PH off", "operator": "Volksbank Wien-Baden", "phone": "+43 2256 62740", "surveillance": "indoor", "website": "https://www.volksbankwien.at/m101/volksbank/m044_43000/de/filiale/leobersdorf.jsp", "wheelchair": "yes", "data_source": "planet_osm"}}, {"type": "Feature", "geometry": {"type": "Point", "coordinates": [16.5083912, 47.8432308]}, "properties": {"id": 3344136169, "camera:angle": "45", "camera:direction": "55", "camera:mount": "wall", "camera:type": "fixed", "height": "5", "man_made": "surveillance", "operator": "Police", "surveillance": "public", "surveillance:type": "camera", "data_source": "planet_osm"}}, {"type": "Feature", "geometry": {"type": "Point", "coordinates": [16.2573624, 47.8241805]}, "properties": {"id": 3372911093, "addr:city": "Wiener Neustadt", "addr:housenumber": "12", "addr:postcode": "2700", "addr:street": "Stadionstra\u00dfe", "brand": "Bipa", "brand:wikidata": "Q864933", "brand:wikipedia": "de:Bipa", "level": "0", "man_made": "surveillance", "name": "Bipa", "shop": "chemist", "surveillance": "indoor", "wheelchair": "yes", "wheelchair:description": "stufenlos passierbar, G\u00e4nge breit genug, Fotoautomat jedoch zu hoch positioniert", "data_source": "planet_osm"}}, {"type": "Feature", "geometry": {"type": "Point", "coordinates": [16.2567643, 47.8240171]}, "properties": {"id": 3372933393, "level": "0", "man_made": "surveillance", "name": "Tabak Trafik Sturm", "opening_hours": "Mo-Fr 07:30-19:00; Sa 07:30-18:00; PH closed", "shop": "kiosk", "surveillance": "indoor", "wheelchair": "yes", "wheelchair:description": "stufenlos erreichbar", "data_source": "planet_osm"}}, {"type": "Feature", "geometry": {"type": "Point", "coordinates": [16.2573716, 47.824233]}, "properties": {"id": 3373056293, "brand": "Libro", "brand:wikidata": "Q1823138", "brand:wikipedia": "de:Libro", "man_made": "surveillance", "name": "Libro", "opening_hours": "Mo-Fr 09:00-19:00; Sa 09:00-18:00", "shop": "books", "surveillance": "indoor", "wheelchair": "yes", "data_source": "planet_osm"}}, {"type": "Feature", "geometry": {"type": "Point", "coordinates": [16.2441216, 47.8157312]}, "properties": {"id": 3380805893, "addr:city": "Wiener Neustadt", "addr:housenumber": "25", "addr:postcode": "2700", "addr:street": "Wiener Stra\u00dfe", "amenity": "atm", "man_made": "surveillance", "name": "Bankomat - Oberbank", "surveillance": "indoor", "wheelchair": "no", "wheelchair:description": "Bankomat zu hoch und spiegelt", "data_source": "planet_osm"}}, {"type": "Feature", "geometry": {"type": "Point", "coordinates": [16.2485162, 47.8281482]}, "properties": {"id": 3524606884, "entrance": "main", "man_made": "surveillance", "operator": "Burger King", "surveillance": "indoor", "data_source": "planet_osm"}}, {"type": "Feature", "geometry": {"type": "Point", "coordinates": [16.1889915, 47.9208705]}, "properties": {"id": 4066662319, "camera:angle": "35", "camera:direction": "170", "camera:mount": "street_lamp", "camera:type": "fixed", "height": "3", "man_made": "surveillance", "note": "Recycling Container", "operator": "Gemeinde Enzesfeld", "operator:type": "government", "surveillance": "outdoor", "surveillance:type": "camera", "data_source": "planet_osm"}}, {"type": "Feature", "geometry": {"type": "Point", "coordinates": [16.2462276, 47.8847324]}, "properties": {"id": 4600391243, "camera:angle": "15", "camera:direction": "250", "camera:mount": "pole", "camera:type": "fixed", "contact:webcam": "https://www.feuerwehr-felixdorf.at/cam/fff_hi.jpg", "description": "IR Night Vision", "height": "7", "man_made": "surveillance", "surveillance": "outdoor", "surveillance:type": "camera", "surveillance:zone": "area", "website": "https://www.feuerwehr-felixdorf.at/", "data_source": "planet_osm"}}, {"type": "Feature", "geometry": {"type": "Point", "coordinates": [16.2479935, 47.8201942]}, "properties": {"id": 5000255521, "addr:city": "Wiener Neustadt", "addr:country": "AT", "addr:housenumber": "22-24", "addr:postcode": "2700", "addr:street": "Grazer Stra\u00dfe", "air_conditioning": "no", "amenity": "fast_food", "cuisine": "austrian", "man_made": "surveillance", "name": "my schnitzel", "name:cs": "m\u016fj \u0159\u00edzek", "opening_hours": "Mo-Su 10:00-21:00", "outdoor_seating": "yes", "surveillance": "indoor", "takeaway": "yes", "wheelchair": "yes", "data_source": "planet_osm"}}, {"type": "Feature", "geometry": {"type": "Point", "coordinates": [16.245045, 47.8114145]}, "properties": {"id": 5161877079, "addr:city": "Wiener Neustadt", "addr:country": "AT", "addr:housenumber": "104", "addr:postcode": "2700", "addr:street": "Grazer Stra\u00dfe", "amenity": "bank", "atm": "yes", "bic": "BFKKAT2KXXX", "brand": "BKS Bank", "brand:wikidata": "Q796136", "man_made": "surveillance", "name": "BKS Bank", "official_name": "Bank f\u00fcr K\u00e4rnten und Steiermark", "surveillance": "indoor", "data_source": "planet_osm"}}, {"type": "Feature", "geometry": {"type": "Point", "coordinates": [16.1878953, 47.9278668]}, "properties": {"id": 5165280814, "entrance": "main", "man_made": "surveillance", "surveillance": "indoor", "data_source": "planet_osm"}}, {"type": "Feature", "geometry": {"type": "Point", "coordinates": [16.231591, 47.9380496]}, "properties": {"id": 5866165402, "camera:mount": "wall", "camera:type": "dome", "level": "0", "man_made": "surveillance", "surveillance": "public", "surveillance:type": "camera", "data_source": "planet_osm"}}, {"type": "Feature", "geometry": {"type": "Point", "coordinates": [16.2315897, 47.9380559]}, "properties": {"id": 5866165403, "camera:mount": "wall", "camera:type": "fixed", "level": "-1", "man_made": "surveillance", "surveillance": "public", "surveillance:type": "camera", "data_source": "planet_osm"}}, {"type": "Feature", "geometry": {"type": "Point", "coordinates": [16.2310224, 47.9380896]}, "properties": {"id": 5867334671, "camera:mount": "roof", "camera:type": "fixed", "check_date": "2023-10-23", "level": "0", "man_made": "surveillance", "surveillance": "public", "surveillance:type": "camera", "data_source": "planet_osm"}}, {"type": "Feature", "geometry": {"type": "Point", "coordinates": [16.2313342, 47.9381394]}, "properties": {"id": 5867334672, "camera:mount": "roof", "camera:type": "fixed", "check_date": "2023-10-23", "level": "0", "man_made": "surveillance", "surveillance": "public", "surveillance:type": "camera", "data_source": "planet_osm"}}, {"type": "Feature", "geometry": {"type": "Point", "coordinates": [16.2310613, 47.9379813]}, "properties": {"id": 5867334673, "camera:mount": "roof", "camera:type": "dome", "check_date": "2023-10-23", "level": "-1", "man_made": "surveillance", "surveillance": "public", "surveillance:type": "camera", "data_source": "planet_osm"}}, {"type": "Feature", "geometry": {"type": "Point", "coordinates": [16.2313731, 47.9380321]}, "properties": {"id": 5867334674, "camera:mount": "roof", "camera:type": "dome", "check_date": "2023-10-23", "level": "-1", "man_made": "surveillance", "surveillance": "public", "surveillance:type": "camera", "data_source": "planet_osm"}}, {"type": "Feature", "geometry": {"type": "Point", "coordinates": [16.2312256, 47.9379836]}, "properties": {"id": 5867334675, "camera:mount": "roof", "camera:type": "dome", "check_date": "2023-10-23", "level": "-1", "man_made": "surveillance", "surveillance": "public", "surveillance:type": "camera", "data_source": "planet_osm"}}, {"type": "Feature", "geometry": {"type": "Point", "coordinates": [16.2309325, 47.9379225]}, "properties": {"id": 5869041033, "camera:mount": "wall", "camera:type": "dome", "check_date": "2023-05-04", "level": "-1", "man_made": "surveillance", "surveillance": "public", "surveillance:type": "camera", "data_source": "planet_osm"}}, {"type": "Feature", "geometry": {"type": "Point", "coordinates": [16.2308313, 47.9377365]}, "properties": {"id": 5869041034, "camera:angle": "80", "camera:direction": "180", "camera:mount": "wall", "camera:type": "fixed", "level": "0", "man_made": "surveillance", "surveillance": "public", "surveillance:type": "camera", "data_source": "planet_osm"}}, {"type": "Feature", "geometry": {"type": "Point", "coordinates": [16.2309386, 47.937785]}, "properties": {"id": 5869041035, "camera:mount": "wall", "camera:type": "dome", "check_date": "2023-10-23", "level": "0", "man_made": "surveillance", "surveillance": "public", "surveillance:type": "camera", "data_source": "planet_osm"}}, {"type": "Feature", "geometry": {"type": "Point", "coordinates": [16.2308574, 47.9378232]}, "properties": {"id": 5869041036, "camera:mount": "wall", "camera:type": "dome", "check_date": "2023-10-23", "level": "0", "man_made": "surveillance", "surveillance": "public", "surveillance:type": "camera", "data_source": "planet_osm"}}, {"type": "Feature", "geometry": {"type": "Point", "coordinates": [16.2308414, 47.9378241]}, "properties": {"id": 5912234732, "camera:angle": "30", "camera:direction": "10", "camera:mount": "wall", "camera:type": "fixed", "level": "0", "man_made": "surveillance", "surveillance": "outdoor", "surveillance:type": "camera", "data_source": "planet_osm"}}, {"type": "Feature", "geometry": {"type": "Point", "coordinates": [16.2314931, 47.9380406]}, "properties": {"id": 5912234733, "camera:mount": "roof", "camera:type": "dome", "level": "-1", "man_made": "surveillance", "surveillance": "public", "surveillance:type": "camera", "data_source": "planet_osm"}}, {"type": "Feature", "geometry": {"type": "Point", "coordinates": [16.2312075, 47.9379885]}, "properties": {"id": 5912234734, "camera:mount": "roof", "camera:type": "dome", "check_date": "2023-10-23", "level": "-1", "man_made": "surveillance", "surveillance": "public", "surveillance:type": "camera", "data_source": "planet_osm"}}, {"type": "Feature", "geometry": {"type": "Point", "coordinates": [16.2164563, 47.9481098]}, "properties": {"id": 6145264521, "camera:direction": "15", "camera:type": "fixed", "contact:webcam": "https://webcams2.asfinag.at/webcamviewer/SingleScreenServlet//showcam?user=webcamstartseite&wcsid=A002_027,746_1_00008434", "description": "A2 bei Anschlussstelle Kottingbrunn, km 27.75 | Richtung: Wien", "height": "7", "man_made": "surveillance", "operator": "ASFINAG", "surveillance": "public", "surveillance:type": "camera", "surveillance:zone": "traffic", "data_source": "planet_osm"}}, {"type": "Feature", "geometry": {"type": "Point", "coordinates": [16.2164521, 47.9481029]}, "properties": {"id": 6145264522, "camera:direction": "209", "camera:type": "fixed", "contact:webcam": "https://webcams2.asfinag.at/webcamviewer/SingleScreenServlet//showcam?user=webcamstartseite&wcsid=A002_027,746_0_00008431", "description": "A2 bei Anschlussstelle Kottingbrunn, km 27.75 | Richtung: Wien", "height": "7", "man_made": "surveillance", "operator": "ASFINAG", "surveillance": "public", "surveillance:type": "camera", "surveillance:zone": "traffic", "data_source": "planet_osm"}}, {"type": "Feature", "geometry": {"type": "Point", "coordinates": [16.455695, 47.9105324]}, "properties": {"id": 6176912115, "description": "Wildkamera", "fixme": "Lage", "man_made": "surveillance", "surveillance": "outdoor", "surveillance:type": "camera", "data_source": "planet_osm"}}, {"type": "Feature", "geometry": {"type": "Point", "coordinates": [16.1768532, 47.9311544]}, "properties": {"id": 6533458586, "man_made": "surveillance", "name": "SR Autoteile", "shop": "car_parts", "surveillance": "indoor", "data_source": "planet_osm"}}, {"type": "Feature", "geometry": {"type": "Point", "coordinates": [16.2501114, 47.8251363]}, "properties": {"id": 7057933112, "addr:city": "Wiener Neustadt", "addr:housenumber": "29", "addr:postcode": "2700", "addr:street": "Pottendorfer Stra\u00dfe", "brand": "Tipico", "brand:wikidata": "Q15851003", "brand:wikipedia": "en:Tipico", "level": "0", "man_made": "surveillance", "name": "Tipico", "shop": "bookmaker", "surveillance": "indoor", "data_source": "planet_osm"}}, {"type": "Feature", "geometry": {"type": "Point", "coordinates": [16.2511791, 47.8263387]}, "properties": {"id": 7057933121, "addr:city": "Wiener Neustadt", "addr:country": "AT", "addr:housenumber": "39", "addr:postcode": "2700", "addr:street": "Pottendorfer Stra\u00dfe", "brand": "dm", "brand:wikidata": "Q266572", "brand:wikipedia": "en:Dm-drogerie markt", "check_date": "2022-05-19", "man_made": "surveillance", "name": "dm", "opening_hours": "Mo-Fr 08:30-18:30; Sa 08:30-17:00", "operator": "dm", "operator:wikidata": "Q72725613", "phone": "+43262264191", "shop": "chemist", "surveillance": "indoor", "data_source": "planet_osm"}}], "networks": []}