{"type": "FeatureCollection", "features": [{"type": "Feature", "geometry": {"type": "Point", "coordinates": [13.3315227, 52.9789913]}, "properties": {"id": 289165631, "addr:city": "Zehdenick", "addr:country": "DE", "addr:housenumber": "1", "addr:postcode": "16792", "addr:street": "Am Markt", "amenity": "bank", "atm": "yes", "bic": "COBA DEFF XXX", "brand": "Commerzbank", "brand:wikidata": "Q157617", "brand:wikipedia": "de:Commerzbank", "camera:type": "fixed", "contact:facebook": "https://www.facebook.com/commerzbank/", "contact:instagram": "https://www.instagram.com/commerzbank/", "contact:phone": "+49 3307 301 610", "contact:twitter": "https://twitter.com/commerzbank", "contact:xing": "https://www.xing.com/company/commerzbank", "contact:youtube": "https://www.youtube.com/user/CommerzbankPrivat", "door": "hinged", "entrance": "main", "handrail:left": "yes", "handrail:right": "yes", "man_made": "surveillance", "name": "Commerzbank", "network": "Cash Group", "network:wikidata": "Q961426", "network:wikipedia": "de:Cash Group", "opening_hours": "Mo 09:00-13:00,14:00-16:00; Tu,Th 09:00-13:00,14:30-18:00; We,Fr 09:00-14:00; PH,Sa,Su off", "operator": "Commerzbank Aktiengesellschaft", "operator:type": "business", "operator:wikidata": "Q157617", "operator:wikipedia": "de:Commerzbank", "step_count": "3", "surveillance": "indoor", "surveillance:type": "camera", "surveillance:zone": "bank", "wheelchair": "no", "data_source": "planet_osm"}}, {"type": "Feature", "geometry": {"type": "Point", "coordinates": [13.3314465, 52.9789916]}, "properties": {"id": 6466494514, "amenity": "atm", "brand": "Commerzbank", "brand:wikidata": "Q157617", "brand:wikipedia": "de:Commerzbank", "camera:type": "fixed", "cash_in": "yes", "man_made": "surveillance", "network": "Cash Group", "network:wikidata": "Q961426", "network:wikipedia": "de:Cash Group", "operator": "Commerzbank Aktiengesellschaft", "operator:type": "business", "operator:wikidata": "Q157617", "operator:wikipedia": "de:Commerzbank", "surveillance": "indoor", "surveillance:type": "camera", "surveillance:zone": "bank", "wheelchair": "no", "data_source": "planet_osm"}}], "networks": []}