{"type": "FeatureCollection", "features": [{"type": "Feature", "geometry": {"type": "Point", "coordinates": [13.3111097, 51.3033181]}, "properties": {"id": 950693035, "man_made": "surveillance", "surveillance": "outdoor", "data_source": "planet_osm"}}, {"type": "Feature", "geometry": {"type": "Point", "coordinates": [13.3154289, 51.3366925]}, "properties": {"id": 4294729559, "camera:mount": "pole", "camera:type": "fixed", "check_date": "2024-08-17", "man_made": "surveillance", "operator": "DB Netz AG", "surveillance": "public", "surveillance:type": "camera", "surveillance:zone": "traffic", "data_source": "planet_osm"}}, {"type": "Feature", "geometry": {"type": "Point", "coordinates": [13.3154129, 51.3366952]}, "properties": {"id": 4294729560, "camera:mount": "pole", "camera:type": "fixed", "check_date": "2024-08-17", "man_made": "surveillance", "operator": "DB Netz AG", "surveillance": "public", "surveillance:type": "camera", "surveillance:zone": "traffic", "data_source": "planet_osm"}}, {"type": "Feature", "geometry": {"type": "Point", "coordinates": [13.1464378, 51.3676343]}, "properties": {"id": 4726336266, "addr:city": "Liebsch\u00fctzberg", "addr:country": "DE", "addr:housenumber": "1", "addr:postcode": "04758", "addr:street": "Klingenhainer Stra\u00dfe", "addr:suburb": "Laas", "amenity": "vending_machine", "contact:fax": "+49 3463 68159", "contact:phone": "+49 3463 6810", "contact:website": "http://agrar-laas.de/?s=pflanzen-und-tierproduktion", "description:de": "Flaschenautomat, 1 Literflasche f\u00fcr 1 Euro, Zahlung 5 Cent bis 2 Euro- Geldwechsel, Milchautomat max 1 Liter- auch Teilmengen, Zahlung 5 Cent bis 1 Euro,", "man_made": "surveillance", "milk": "raw_milk", "name": "Milchzapfstelle", "opening_hours": "Mo-Su 06:00-20:00", "operator": "Agrargenossenschaft Laas eG", "payment:coins": "yes", "surveillance": "indoor", "vending": "milk", "data_source": "planet_osm"}}], "networks": []}