{"type": "FeatureCollection", "features": [{"type": "Feature", "geometry": {"type": "Point", "coordinates": [27.5712129, 44.8735705]}, "properties": {"id": 673388, "enforcement": "maxspeed", "highway": "speed_camera", "man_made": "surveillance", "maxspeed": "100", "data_source": "planet_osm"}}, {"type": "Feature", "geometry": {"type": "Point", "coordinates": [27.6080592, 44.9156975]}, "properties": {"id": 370840648, "enforcement": "maxspeed", "highway": "speed_camera", "man_made": "surveillance", "maxspeed": "50", "data_source": "planet_osm"}}, {"type": "Feature", "geometry": {"type": "Point", "coordinates": [27.6591967, 44.9455736]}, "properties": {"id": 370841362, "enforcement": "maxspeed", "highway": "speed_camera", "man_made": "surveillance", "maxspeed": "100", "data_source": "planet_osm"}}, {"type": "Feature", "geometry": {"type": "Point", "coordinates": [27.6041414, 44.9135463]}, "properties": {"id": 370841999, "enforcement": "maxspeed", "highway": "speed_camera", "man_made": "surveillance", "maxspeed": "50", "data_source": "planet_osm"}}, {"type": "Feature", "geometry": {"type": "Point", "coordinates": [27.5997934, 44.9110202]}, "properties": {"id": 370842058, "enforcement": "maxspeed", "highway": "speed_camera", "man_made": "surveillance", "maxspeed": "50", "data_source": "planet_osm"}}], "networks": []}