{"type": "FeatureCollection", "features": [{"type": "Feature", "geometry": {"type": "Point", "coordinates": [9.2750677, 53.0133872]}, "properties": {"id": 349192859, "highway": "speed_camera", "man_made": "surveillance", "maxspeed": "70", "data_source": "planet_osm"}}, {"type": "Feature", "geometry": {"type": "Point", "coordinates": [9.3676327, 53.0896406]}, "properties": {"id": 776537448, "direction": "215", "highway": "speed_camera", "man_made": "surveillance", "maxspeed": "70", "data_source": "planet_osm"}}, {"type": "Feature", "geometry": {"type": "Point", "coordinates": [9.456184, 53.0931511]}, "properties": {"id": 776564628, "highway": "speed_camera", "man_made": "surveillance", "maxspeed": "70", "data_source": "planet_osm"}}, {"type": "Feature", "geometry": {"type": "Point", "coordinates": [9.4564439, 53.0931645]}, "properties": {"id": 776564635, "highway": "speed_camera", "man_made": "surveillance", "maxspeed": "70", "note": "Hilfspunkt, weil POI leichter ausgewertet werden als Relationen", "data_source": "planet_osm"}}, {"type": "Feature", "geometry": {"type": "Point", "coordinates": [9.3996083, 53.1134319]}, "properties": {"id": 1203774618, "man_made": "surveillance", "surveillance": "outdoor", "data_source": "planet_osm"}}, {"type": "Feature", "geometry": {"type": "Point", "coordinates": [9.4005641, 53.1130571]}, "properties": {"id": 1203774641, "man_made": "surveillance", "surveillance": "outdoor", "data_source": "planet_osm"}}, {"type": "Feature", "geometry": {"type": "Point", "coordinates": [9.4567421, 53.0931885]}, "properties": {"id": 4717596651, "highway": "speed_camera", "man_made": "surveillance", "maxspeed": "70", "data_source": "planet_osm"}}, {"type": "Feature", "geometry": {"type": "Point", "coordinates": [9.2799007, 52.9326884]}, "properties": {"id": 4897608320, "camera:type": "fixed", "check_date": "2025-08-11", "man_made": "surveillance", "surveillance": "public", "surveillance:type": "camera", "surveillance:zone": "traffic", "data_source": "planet_osm"}}, {"type": "Feature", "geometry": {"type": "Point", "coordinates": [9.2751463, 53.0133514]}, "properties": {"id": 6855092558, "highway": "speed_camera", "man_made": "surveillance", "maxspeed": "70", "note": "Hilfspunkt, weil POI leichter ausgewertet werden als Relationen", "data_source": "planet_osm"}}, {"type": "Feature", "geometry": {"type": "Point", "coordinates": [9.3676263, 53.0896435]}, "properties": {"id": 6855120770, "direction": "35", "highway": "speed_camera", "man_made": "surveillance", "maxspeed": "70", "note": "Hilfspunkt, weil POI leichter ausgewertet werden als Relationen", "data_source": "planet_osm"}}], "networks": []}