{"type": "FeatureCollection", "features": [{"type": "Feature", "geometry": {"type": "Point", "coordinates": [77.004693, 8.6085408]}, "properties": {"id": 7039041562, "addr:street": "kallingal Junction", "amenity": "atm", "cash_in": "no", "currency:INR": "yes", "man_made": "surveillance", "name": "Federal Bank ATM", "opening_hours": "24 hrs", "operator": "Federal Bank", "ref": "FBAS1083", "data_source": "planet_osm"}}, {"type": "Feature", "geometry": {"type": "Point", "coordinates": [77.0316728, 8.6350817]}, "properties": {"id": 7039163413, "addr:street": "16th Stone Junction", "amenity": "atm", "cash_in": "no", "currency:INR": "yes", "man_made": "surveillance", "name": "India 1 ATM", "network": "India 1 Atm", "opening_hours": "24/7", "data_source": "planet_osm"}}, {"type": "Feature", "geometry": {"type": "Point", "coordinates": [77.0559725, 8.6450122]}, "properties": {"id": 7039240078, "addr:street": "Tholicode", "amenity": "atm", "brand": "Indianbank", "cash_in": "yes", "check_date": "2024-01-04", "covered": "yes", "currency:INR": "yes", "drive_through": "no", "language:en": "yes", "language:ml": "yes", "language:others": "no", "lit": "yes", "man_made": "surveillance", "name": "Indian bank ATM", "opening_hours": "24/7", "operator": "Indian Bank", "source": "local knowledge", "data_source": "planet_osm"}}, {"type": "Feature", "geometry": {"type": "Point", "coordinates": [76.9958757, 8.6005814]}, "properties": {"id": 7055201167, "addr:street": "Valicode Junction", "amenity": "atm", "currency:INR": "yes", "drive_through": "no", "man_made": "surveillance", "network": "State Bank of India", "opening_hours": "24/7", "operator": "State Bank of India", "short_name": "State Bank of India ATM", "data_source": "planet_osm"}}], "networks": []}