{"type": "FeatureCollection", "features": [{"type": "Feature", "geometry": {"type": "Point", "coordinates": [-2.2548637, 43.2918427]}, "properties": {"id": 561149935, "addr:city": "Zumaia", "addr:postcode": "20750", "addr:street": "Alai auzategia", "brand": "Eroski", "brand:wikidata": "Q1361349", "brand:wikipedia": "en:Eroski", "man_made": "surveillance", "name": "Eroski", "nohousenumber": "yes", "phone": "+34 943143430", "shop": "supermarket", "source": "b5m", "wheelchair": "yes", "data_source": "planet_osm"}}, {"type": "Feature", "geometry": {"type": "Point", "coordinates": [-2.2544574, 43.2924473]}, "properties": {"id": 561149961, "amenity": "atm", "check_date": "2025-03-15", "indoor": "no", "man_made": "surveillance", "operator": "Kutxa", "data_source": "planet_osm"}}, {"type": "Feature", "geometry": {"type": "Point", "coordinates": [-2.2578386, 43.2956363]}, "properties": {"id": 561181339, "amenity": "atm", "atm": "yes", "brand": "Banco Sabadell", "brand:ca": "Banc Sabadell", "brand:es": "Banco Sabadell", "brand:wikidata": "Q762330", "drive_through": "no", "indoor": "yes", "man_made": "surveillance", "name": "Banco Sabadell", "official_name": "Banco de Sabadell, S.A.", "operator": "Banco Sabadell", "operator:wikidata": "Q762330", "wheelchair": "yes", "data_source": "planet_osm"}}, {"type": "Feature", "geometry": {"type": "Point", "coordinates": [-2.2579759, 43.2960047]}, "properties": {"id": 561183064, "amenity": "bank", "atm": "yes", "atm:network": "Telebanco 4B", "atm:operator": "Banco Santander", "brand": "Banco Santander", "brand:en": "Santander Bank", "brand:es": "Banco Santander", "brand:wikidata": "Q6496310", "brand:wikipedia": "es:Banco Santander", "man_made": "surveillance", "name": "Banco Santander", "name:en": "Santander Bank", "name:es": "Banco Santander", "official_name": "Santander Group", "operator": "Santander", "wheelchair": "yes", "data_source": "planet_osm"}}, {"type": "Feature", "geometry": {"type": "Point", "coordinates": [-2.2581262, 43.2958977]}, "properties": {"id": 561183068, "amenity": "bank", "atm": "yes", "brand": "Kutxabank", "brand:wikidata": "Q5139377", "brand:wikipedia": "en:Kutxabank", "check_date": "2025-02-21", "man_made": "surveillance", "name": "Kutxabank", "operator": "Kutxa", "wheelchair": "yes", "data_source": "planet_osm"}}, {"type": "Feature", "geometry": {"type": "Point", "coordinates": [-2.2582501, 43.295796]}, "properties": {"id": 561183072, "amenity": "bank", "atm": "yes", "brand": "Laboral Kutxa", "brand:wikidata": "Q12052386", "brand:wikipedia": "en:Laboral Kutxa", "check_date": "2025-02-21", "man_made": "surveillance", "name": "Laboral Kutxa", "old_name:es": "Caja Laboral", "old_name:eu": "Euskadiko Kutxa", "operator": "Caja Laboral - Euskadiko kutxa", "wheelchair": "yes", "data_source": "planet_osm"}}, {"type": "Feature", "geometry": {"type": "Point", "coordinates": [-2.2563215, 43.2968685]}, "properties": {"id": 562673121, "amenity": "bank", "atm": "yes", "atm:network": "Servired", "atm:operator": "BBVA", "brand": "BBVA", "brand:wikidata": "Q806189", "brand:wikipedia": "en:Banco Bilbao Vizcaya Argentaria", "man_made": "surveillance", "name": "BBVA", "official_name": "Banco Bilbao Vizcaya Argentaria", "operator": "BBVA", "wheelchair": "yes", "data_source": "planet_osm"}}, {"type": "Feature", "geometry": {"type": "Point", "coordinates": [-2.3239748, 43.0903106]}, "properties": {"id": 593405302, "camera:direction": "150", "camera:mount": "wall", "camera:type": "panning", "man_made": "surveillance", "surveillance": "cctv", "surveillance:type": "camera", "data_source": "planet_osm"}}, {"type": "Feature", "geometry": {"type": "Point", "coordinates": [-2.4120947, 43.1171272]}, "properties": {"id": 796145165, "camera:mount": "wall", "camera:type": "dome", "man_made": "surveillance", "surveillance:type": "camera", "data_source": "planet_osm"}}, {"type": "Feature", "geometry": {"type": "Point", "coordinates": [-2.3814245, 43.0988027]}, "properties": {"id": 945455561, "addr:city": "Antzuola", "addr:floor": "0", "addr:housenumber": "16", "addr:postcode": "20577", "addr:street": "Herriko Plaza", "amenity": "bank", "atm": "yes", "b5m:id": "D_2391", "b5m:url": "http://b5m.gipuzkoa.net/b5map/r1/eu/mapa/lekutu/D_2391", "b5m:urlOrto": "http://b5m.gipuzkoa.net/url5000/index.php?id=D_2391&lengua=1&actu=0&categoria=VITO_FOTO", "brand": "Laboral Kutxa", "brand:wikidata": "Q12052386", "brand:wikipedia": "en:Laboral Kutxa", "check_date": "2024-12-07", "level": "0", "man_made": "surveillance", "name": "Laboral Kutxa", "operator": "Laboral Kutxa", "source": "b5m", "surveillance": "indoor", "wheelchair": "yes", "data_source": "planet_osm"}}, {"type": "Feature", "geometry": {"type": "Point", "coordinates": [-2.3817898, 43.0987367]}, "properties": {"id": 945455680, "addr:city": "Antzuola", "addr:postcode": "20577", "addr:street": "Kalebarren", "amenity": "bank", "b5m:id": "D_2391", "b5m:url": "http://b5m.gipuzkoa.net/b5map/r1/eu/mapa/lekutu/D_2391", "b5m:urlOrto": "http://b5m.gipuzkoa.net/url5000/index.php?id=D_2391&lengua=1&actu=0&categoria=VITO_FOTO", "brand": "Kutxabank", "brand:wikidata": "Q5139377", "brand:wikipedia": "en:Kutxabank", "camera:type": "fixed", "check_date": "2025-02-23", "man_made": "surveillance", "name": "Kutxabank", "operator": "Kutxabank", "source": "b5m", "surveillance": "indoor", "surveillance:type": "camera", "surveillance:zone": "bank", "wheelchair": "yes", "data_source": "planet_osm"}}, {"type": "Feature", "geometry": {"type": "Point", "coordinates": [-2.2568822, 43.2963899]}, "properties": {"id": 2441953970, "amenity": "bank", "atm": "yes", "atm:network": "Servired", "brand": "Caixabank", "brand:website": "https://caixabank.es", "brand:wikidata": "Q847225", "brand:wikipedia": "es:CaixaBank", "contact:website": "https://www.caixabank.es", "man_made": "surveillance", "name": "Caixabank", "wheelchair": "yes", "data_source": "planet_osm"}}, {"type": "Feature", "geometry": {"type": "Point", "coordinates": [-2.3814209, 43.0988054]}, "properties": {"id": 7082467287, "camera:mount": "ceiling", "camera:type": "fixed", "man_made": "surveillance", "surveillance": "indoor", "surveillance:type": "camera", "surveillance:zone": "bank", "data_source": "planet_osm"}}, {"type": "Feature", "geometry": {"type": "Point", "coordinates": [-2.3591606, 43.0881924]}, "properties": {"id": 7082482685, "camera:type": "panning", "man_made": "surveillance", "surveillance": "public", "surveillance:type": "camera", "data_source": "planet_osm"}}, {"type": "Feature", "geometry": {"type": "Point", "coordinates": [-2.2588584, 43.297469]}, "properties": {"id": 7710344385, "brand": "Eroski", "brand:wikidata": "Q1361349", "brand:wikipedia": "en:Eroski", "check_date": "2024-07-13", "man_made": "surveillance", "name": "Eroski City", "shop": "supermarket", "data_source": "planet_osm"}}], "networks": []}