{"type": "FeatureCollection", "features": [{"type": "Feature", "geometry": {"type": "Point", "coordinates": [76.9603739, 8.5229605]}, "properties": {"id": 2392784692, "addr:street": "Kowdiar", "amenity": "atm", "cash_in": "no", "currency:INR": "yes", "man_made": "surveillance", "name": "SBI ATM", "opening_hours": "24/7", "operator": "State Bank Of India", "data_source": "planet_osm"}}, {"type": "Feature", "geometry": {"type": "Point", "coordinates": [76.9536047, 8.5197143]}, "properties": {"id": 5919728923, "man_made": "surveillance", "surveillance:type": "camera", "data_source": "planet_osm"}}, {"type": "Feature", "geometry": {"type": "Point", "coordinates": [76.9910476, 8.5698882]}, "properties": {"id": 7055196907, "addr:street": "8th Stone", "amenity": "atm", "cash_in": "no", "currency:INR": "yes", "man_made": "surveillance", "name": "SBI ATM", "opening_hours": "24/7", "operator": "sbi", "data_source": "planet_osm"}}, {"type": "Feature", "geometry": {"type": "Point", "coordinates": [76.8689373, 8.5842827]}, "properties": {"id": 7635847109, "man_made": "surveillance", "surveillance": "public", "data_source": "planet_osm"}}], "networks": []}