{"type": "FeatureCollection", "features": [{"type": "Feature", "geometry": {"type": "Point", "coordinates": [42.9053079, 36.859889]}, "properties": {"id": 4827415922, "addr:city": "\u062f\u0647\u0648\u06a9", "addr:street": "\u062c\u0627\u062f\u0627 \u06af\u0634\u062a\u06cc \u062a\u06d5\u0646\u0627\u0647\u06cc", "air_conditioning": "yes", "amenity": "restaurant", "capacity": "50", "cuisine": "diner;chicken;kebab;barbecue;sandwich;fried_chicken", "delivery": "yes", "email": "bani.rest@gmail.com", "image": "https://www.facebook.com/bani.rest/photos/a.107176291284434/121204896548240", "man_made": "surveillance", "name": "Bani rest", "name:ar": "\u0628\u0627\u0646\u064a", "name:en": "Bani", "name:ku": "\u0628\u0627\u0646\u06cc", "opening_hours": "Mo-Su 09:00-12:00", "phone": "07508151814", "stars": "4", "takeaway": "yes", "website": "https://www.bani.rest", "data_source": "planet_osm"}}, {"type": "Feature", "geometry": {"type": "Point", "coordinates": [42.954769, 36.8554857]}, "properties": {"id": 5735938234, "man_made": "surveillance", "data_source": "planet_osm"}}, {"type": "Feature", "geometry": {"type": "Point", "coordinates": [43.2155131, 36.7950826]}, "properties": {"id": 7167397685, "man_made": "surveillance", "data_source": "planet_osm"}}, {"type": "Feature", "geometry": {"type": "Point", "coordinates": [43.0612608, 36.8454066]}, "properties": {"id": 8043884194, "man_made": "surveillance", "data_source": "planet_osm"}}, {"type": "Feature", "geometry": {"type": "Point", "coordinates": [42.9341118, 36.7331789]}, "properties": {"id": 8200832318, "man_made": "surveillance", "data_source": "planet_osm"}}], "networks": []}