{"type": "FeatureCollection", "features": [{"type": "Feature", "geometry": {"type": "Point", "coordinates": [59.6189266, 42.4469751]}, "properties": {"id": 1795743745, "addr:country": "UZ", "addr:region": "Qaraqalpaqstan Respublikas\u0131", "camera:mount": "ceiling", "camera:type": "dome", "location": "roof", "man_made": "surveillance", "surveillance": "public", "surveillance:type": "camera", "surveillance:zone": "town", "data_source": "planet_osm"}}, {"type": "Feature", "geometry": {"type": "Point", "coordinates": [59.6111242, 42.4636577]}, "properties": {"id": 1795743972, "addr:country": "UZ", "addr:region": "Qaraqalpaqstan Respublikas\u0131", "camera:mount": "ceiling", "camera:type": "dome", "man_made": "surveillance", "surveillance": "public", "surveillance:type": "camera", "surveillance:zone": "town", "data_source": "planet_osm"}}, {"type": "Feature", "geometry": {"type": "Point", "coordinates": [59.6188965, 42.4609494]}, "properties": {"id": 1816561338, "addr:country": "UZ", "addr:region": "Qaraqalpaqstan Respublikas\u0131", "camera:mount": "ceiling", "camera:type": "dome", "location": "roof", "man_made": "surveillance", "surveillance": "public", "surveillance:type": "camera", "surveillance:zone": "town", "data_source": "planet_osm"}}, {"type": "Feature", "geometry": {"type": "Point", "coordinates": [59.6190869, 42.460979]}, "properties": {"id": 1816561340, "addr:country": "UZ", "addr:region": "Qaraqalpaqstan Respublikas\u0131", "camera:mount": "ceiling", "camera:type": "dome", "location": "roof", "man_made": "surveillance", "surveillance": "public", "surveillance:type": "camera", "surveillance:zone": "town", "data_source": "planet_osm"}}, {"type": "Feature", "geometry": {"type": "Point", "coordinates": [59.6177835, 42.4593542]}, "properties": {"id": 2162372898, "addr:country": "UZ", "addr:region": "Qaraqalpaqstan Respublikas\u0131", "camera:mount": "ceiling", "camera:type": "dome", "location": "roof", "man_made": "surveillance", "surveillance": "public", "surveillance:type": "camera", "surveillance:zone": "town", "data_source": "planet_osm"}}, {"type": "Feature", "geometry": {"type": "Point", "coordinates": [59.6135299, 42.4500565]}, "properties": {"id": 2209747569, "addr:country": "UZ", "addr:region": "Qaraqalpaqstan Respublikas\u0131", "camera:mount": "ceiling", "camera:type": "dome", "location": "roof", "man_made": "surveillance", "surveillance": "public", "surveillance:type": "camera", "surveillance:zone": "town", "data_source": "planet_osm"}}, {"type": "Feature", "geometry": {"type": "Point", "coordinates": [59.633802, 42.4492361]}, "properties": {"id": 2291667219, "addr:country": "UZ", "addr:region": "Qaraqalpaqstan Respublikas\u0131", "camera:mount": "ceiling", "camera:type": "dome", "location": "roof", "man_made": "surveillance", "surveillance": "public", "surveillance:type": "camera", "surveillance:zone": "town", "data_source": "planet_osm"}}, {"type": "Feature", "geometry": {"type": "Point", "coordinates": [59.6195682, 42.4649629]}, "properties": {"id": 3046927394, "addr:country": "UZ", "addr:region": "Qaraqalpaqstan Respublikas\u0131", "camera:mount": "ceiling", "camera:type": "dome", "location": "roof", "man_made": "surveillance", "surveillance": "public", "surveillance:type": "camera", "surveillance:zone": "town", "data_source": "planet_osm"}}, {"type": "Feature", "geometry": {"type": "Point", "coordinates": [59.6368555, 42.4188439]}, "properties": {"id": 3702257477, "addr:country": "UZ", "addr:region": "Qaraqalpaqstan Respublikas\u0131", "camera:mount": "ceiling", "camera:type": "dome", "location": "roof", "man_made": "surveillance", "surveillance": "public", "surveillance:type": "camera", "surveillance:zone": "town", "data_source": "planet_osm"}}, {"type": "Feature", "geometry": {"type": "Point", "coordinates": [59.6421052, 42.4378112]}, "properties": {"id": 3716425981, "addr:country": "UZ", "addr:region": "Qaraqalpaqstan Respublikas\u0131", "camera:mount": "ceiling", "camera:type": "dome", "location": "roof", "man_made": "surveillance", "surveillance": "public", "surveillance:type": "camera", "surveillance:zone": "town", "data_source": "planet_osm"}}, {"type": "Feature", "geometry": {"type": "Point", "coordinates": [59.6425909, 42.4382206]}, "properties": {"id": 3716426011, "addr:country": "UZ", "addr:region": "Qaraqalpaqstan Respublikas\u0131", "camera:mount": "ceiling", "camera:type": "dome", "location": "roof", "man_made": "surveillance", "surveillance": "public", "surveillance:type": "camera", "surveillance:zone": "town", "data_source": "planet_osm"}}, {"type": "Feature", "geometry": {"type": "Point", "coordinates": [59.6423812, 42.4381081]}, "properties": {"id": 3958462312, "addr:country": "UZ", "addr:region": "Qaraqalpaqstan Respublikas\u0131", "camera:mount": "ceiling", "camera:type": "dome", "location": "roof", "man_made": "surveillance", "surveillance": "public", "surveillance:type": "camera", "surveillance:zone": "town", "data_source": "planet_osm"}}, {"type": "Feature", "geometry": {"type": "Point", "coordinates": [59.619412, 42.4651401]}, "properties": {"id": 4375850761, "addr:country": "UZ", "addr:region": "Qaraqalpaqstan Respublikas\u0131", "direction": "backward", "man_made": "surveillance", "surveillance": "traffic", "surveillance:type": "ALPR", "surveillance:zone": "traffic", "data_source": "planet_osm"}}, {"type": "Feature", "geometry": {"type": "Point", "coordinates": [59.6152413, 42.4626639]}, "properties": {"id": 4695921779, "addr:country": "UZ", "addr:region": "Qaraqalpaqstan Respublikas\u0131", "camera:mount": "ceiling", "camera:type": "dome", "location": "roof", "man_made": "surveillance", "surveillance": "public", "surveillance:type": "camera", "surveillance:zone": "town", "data_source": "planet_osm"}}, {"type": "Feature", "geometry": {"type": "Point", "coordinates": [59.626866, 42.4435625]}, "properties": {"id": 4700534374, "addr:country": "UZ", "addr:region": "Qaraqalpaqstan Respublikas\u0131", "camera:mount": "ceiling", "camera:type": "dome", "location": "roof", "man_made": "surveillance", "surveillance": "public", "surveillance:type": "camera", "surveillance:zone": "town", "data_source": "planet_osm"}}, {"type": "Feature", "geometry": {"type": "Point", "coordinates": [59.6411432, 42.4542683]}, "properties": {"id": 4838948663, "addr:country": "UZ", "addr:region": "Qaraqalpaqstan Respublikas\u0131", "direction": "45", "man_made": "surveillance", "surveillance": "traffic", "surveillance:type": "ALPR", "surveillance:zone": "traffic", "data_source": "planet_osm"}}, {"type": "Feature", "geometry": {"type": "Point", "coordinates": [59.6216602, 42.4573533]}, "properties": {"id": 5047867310, "addr:country": "UZ", "addr:region": "Qaraqalpaqstan Respublikas\u0131", "camera:mount": "ceiling", "camera:type": "dome", "location": "roof", "man_made": "surveillance", "surveillance": "public", "surveillance:type": "camera", "surveillance:zone": "town", "data_source": "planet_osm"}}, {"type": "Feature", "geometry": {"type": "Point", "coordinates": [59.6139599, 42.4650009]}, "properties": {"id": 5405029799, "addr:country": "UZ", "addr:region": "Qaraqalpaqstan Respublikas\u0131", "camera:mount": "ceiling", "camera:type": "dome", "location": "roof", "man_made": "surveillance", "surveillance": "public", "surveillance:type": "camera", "surveillance:zone": "town", "data_source": "planet_osm"}}, {"type": "Feature", "geometry": {"type": "Point", "coordinates": [59.6118299, 42.4643666]}, "properties": {"id": 5405030521, "addr:country": "UZ", "addr:region": "Qaraqalpaqstan Respublikas\u0131", "camera:mount": "ceiling", "camera:type": "dome", "location": "roof", "man_made": "surveillance", "surveillance": "public", "surveillance:type": "camera", "surveillance:zone": "town", "data_source": "planet_osm"}}, {"type": "Feature", "geometry": {"type": "Point", "coordinates": [59.5671992, 42.4496451]}, "properties": {"id": 5405283793, "addr:country": "UZ", "addr:region": "Qaraqalpaqstan Respublikas\u0131", "camera:mount": "ceiling", "camera:type": "dome", "location": "roof", "man_made": "surveillance", "surveillance": "public", "surveillance:type": "camera", "surveillance:zone": "town", "data_source": "planet_osm"}}, {"type": "Feature", "geometry": {"type": "Point", "coordinates": [59.6310672, 42.4457168]}, "properties": {"id": 5600580841, "addr:country": "UZ", "addr:region": "Qaraqalpaqstan Respublikas\u0131", "camera:type": "fixed", "direction": "-45", "man_made": "surveillance", "surveillance": "traffic", "surveillance:type": "ALPR", "surveillance:zone": "traffic", "data_source": "planet_osm"}}, {"type": "Feature", "geometry": {"type": "Point", "coordinates": [59.6245664, 42.4416218]}, "properties": {"id": 5600580843, "addr:country": "UZ", "addr:region": "Qaraqalpaqstan Respublikas\u0131", "camera:type": "fixed", "direction": "225", "man_made": "surveillance", "surveillance": "traffic", "surveillance:type": "ALPR", "surveillance:zone": "traffic", "data_source": "planet_osm"}}, {"type": "Feature", "geometry": {"type": "Point", "coordinates": [59.6238401, 42.4415148]}, "properties": {"id": 5600580844, "addr:country": "UZ", "addr:region": "Qaraqalpaqstan Respublikas\u0131", "man_made": "surveillance", "surveillance": "traffic", "surveillance:type": "ALPR", "surveillance:zone": "traffic", "data_source": "planet_osm"}}, {"type": "Feature", "geometry": {"type": "Point", "coordinates": [59.5865348, 42.4565252]}, "properties": {"id": 5763114453, "addr:country": "UZ", "addr:region": "Qaraqalpaqstan Respublikas\u0131", "direction": "-90", "man_made": "surveillance", "surveillance": "traffic", "surveillance:type": "ALPR", "surveillance:zone": "traffic", "data_source": "planet_osm"}}, {"type": "Feature", "geometry": {"type": "Point", "coordinates": [59.6418339, 42.4543669]}, "properties": {"id": 6483774277, "addr:country": "UZ", "addr:region": "Qaraqalpaqstan Respublikas\u0131", "direction": "-45", "man_made": "surveillance", "surveillance": "traffic", "surveillance:type": "ALPR", "surveillance:zone": "traffic", "data_source": "planet_osm"}}, {"type": "Feature", "geometry": {"type": "Point", "coordinates": [59.6411247, 42.4548748]}, "properties": {"id": 6483774278, "addr:country": "UZ", "addr:region": "Qaraqalpaqstan Respublikas\u0131", "camera:type": "fixed", "direction": "125", "man_made": "surveillance", "surveillance": "public", "surveillance:type": "ALPR", "surveillance:zone": "traffic", "data_source": "planet_osm"}}, {"type": "Feature", "geometry": {"type": "Point", "coordinates": [59.6267436, 42.3939417]}, "properties": {"id": 6504034145, "addr:country": "UZ", "addr:region": "Qaraqalpaqstan Respublikas\u0131", "man_made": "surveillance", "surveillance": "public", "surveillance:zone": "street", "data_source": "planet_osm"}}, {"type": "Feature", "geometry": {"type": "Point", "coordinates": [59.585897, 42.4568879]}, "properties": {"id": 6506517979, "addr:country": "UZ", "addr:region": "Qaraqalpaqstan Respublikas\u0131", "direction": "-180", "man_made": "surveillance", "surveillance": "traffic", "surveillance:type": "ALPR", "surveillance:zone": "traffic", "data_source": "planet_osm"}}, {"type": "Feature", "geometry": {"type": "Point", "coordinates": [59.5858323, 42.456011]}, "properties": {"id": 6506517980, "addr:country": "UZ", "addr:region": "Qaraqalpaqstan Respublikas\u0131", "direction": "5", "man_made": "surveillance", "surveillance": "traffic", "surveillance:type": "ALPR", "surveillance:zone": "traffic", "data_source": "planet_osm"}}, {"type": "Feature", "geometry": {"type": "Point", "coordinates": [59.6044986, 42.4653901]}, "properties": {"id": 6757330239, "addr:country": "UZ", "addr:region": "Qaraqalpaqstan Respublikas\u0131", "camera:mount": "ceiling", "camera:type": "dome", "location": "roof", "man_made": "surveillance", "surveillance": "public", "surveillance:type": "camera", "surveillance:zone": "town", "data_source": "planet_osm"}}, {"type": "Feature", "geometry": {"type": "Point", "coordinates": [59.630294, 42.4398831]}, "properties": {"id": 6844657350, "addr:country": "UZ", "addr:region": "Qaraqalpaqstan Respublikas\u0131", "camera:mount": "ceiling", "camera:type": "dome", "man_made": "surveillance", "surveillance": "public", "surveillance:type": "camera", "surveillance:zone": "town", "data_source": "planet_osm"}}, {"type": "Feature", "geometry": {"type": "Point", "coordinates": [59.6238655, 42.4414945]}, "properties": {"id": 6845491942, "addr:country": "UZ", "addr:region": "Qaraqalpaqstan Respublikas\u0131", "camera:direction": "135", "camera:type": "dome", "man_made": "surveillance", "surveillance": "public", "surveillance:type": "camera", "surveillance:zone": "street", "data_source": "planet_osm"}}, {"type": "Feature", "geometry": {"type": "Point", "coordinates": [59.6171974, 42.47449]}, "properties": {"id": 6854801926, "addr:country": "UZ", "addr:region": "Qaraqalpaqstan Respublikas\u0131", "direction": "-195", "man_made": "surveillance", "surveillance": "traffic", "surveillance:type": "ALPR", "surveillance:zone": "traffic", "data_source": "planet_osm"}}, {"type": "Feature", "geometry": {"type": "Point", "coordinates": [59.6168509, 42.4740994]}, "properties": {"id": 6854801927, "addr:country": "UZ", "addr:region": "Qaraqalpaqstan Respublikas\u0131", "direction": "80", "man_made": "surveillance", "surveillance": "traffic", "surveillance:type": "ALPR", "surveillance:zone": "traffic", "data_source": "planet_osm"}}, {"type": "Feature", "geometry": {"type": "Point", "coordinates": [59.617395, 42.4738128]}, "properties": {"id": 6854801928, "addr:country": "UZ", "addr:region": "Qaraqalpaqstan Respublikas\u0131", "direction": "-10", "man_made": "surveillance", "surveillance": "traffic", "surveillance:type": "ALPR", "surveillance:zone": "traffic", "data_source": "planet_osm"}}, {"type": "Feature", "geometry": {"type": "Point", "coordinates": [59.5850643, 42.4562184]}, "properties": {"id": 6856900938, "addr:country": "UZ", "addr:region": "Qaraqalpaqstan Respublikas\u0131", "direction": "70", "man_made": "surveillance", "surveillance": "traffic", "surveillance:type": "ALPR", "surveillance:zone": "traffic", "data_source": "planet_osm"}}, {"type": "Feature", "geometry": {"type": "Point", "coordinates": [59.6158552, 42.4650395]}, "properties": {"id": 6856900940, "addr:country": "UZ", "addr:region": "Qaraqalpaqstan Respublikas\u0131", "camera:type": "dome", "man_made": "surveillance", "surveillance": "public", "surveillance:type": "camera", "surveillance:zone": "street", "data_source": "planet_osm"}}, {"type": "Feature", "geometry": {"type": "Point", "coordinates": [59.6164246, 42.4648116]}, "properties": {"id": 6856900943, "addr:country": "UZ", "addr:region": "Qaraqalpaqstan Respublikas\u0131", "direction": "backward", "man_made": "surveillance", "surveillance": "traffic", "surveillance:type": "ALPR", "surveillance:zone": "traffic", "data_source": "planet_osm"}}, {"type": "Feature", "geometry": {"type": "Point", "coordinates": [59.6160371, 42.4643161]}, "properties": {"id": 6856900944, "addr:country": "UZ", "addr:region": "Qaraqalpaqstan Respublikas\u0131", "direction": "forward", "man_made": "surveillance", "surveillance": "traffic", "surveillance:type": "ALPR", "surveillance:zone": "traffic", "data_source": "planet_osm"}}, {"type": "Feature", "geometry": {"type": "Point", "coordinates": [59.6154507, 42.4645519]}, "properties": {"id": 6856900946, "addr:country": "UZ", "addr:region": "Qaraqalpaqstan Respublikas\u0131", "direction": "backward", "man_made": "surveillance", "surveillance": "traffic", "surveillance:type": "ALPR", "surveillance:zone": "traffic", "data_source": "planet_osm"}}, {"type": "Feature", "geometry": {"type": "Point", "coordinates": [59.6177608, 42.4742131]}, "properties": {"id": 6856900947, "addr:country": "UZ", "addr:region": "Qaraqalpaqstan Respublikas\u0131", "direction": "-100", "man_made": "surveillance", "surveillance": "traffic", "surveillance:type": "ALPR", "surveillance:zone": "traffic", "data_source": "planet_osm"}}, {"type": "Feature", "geometry": {"type": "Point", "coordinates": [59.6245955, 42.4410914]}, "properties": {"id": 6856900949, "addr:country": "UZ", "addr:region": "Qaraqalpaqstan Respublikas\u0131", "direction": "315", "man_made": "surveillance", "surveillance": "traffic", "surveillance:type": "ALPR", "surveillance:zone": "traffic", "data_source": "planet_osm"}}, {"type": "Feature", "geometry": {"type": "Point", "coordinates": [59.641768, 42.4549028]}, "properties": {"id": 6856900955, "addr:country": "UZ", "addr:region": "Qaraqalpaqstan Respublikas\u0131", "camera:type": "fixed", "direction": "215", "man_made": "surveillance", "surveillance": "traffic", "surveillance:type": "ALPR", "surveillance:zone": "traffic", "data_source": "planet_osm"}}, {"type": "Feature", "geometry": {"type": "Point", "coordinates": [59.6196426, 42.4656922]}, "properties": {"id": 6858402670, "addr:country": "UZ", "addr:region": "Qaraqalpaqstan Respublikas\u0131", "direction": "backward", "man_made": "surveillance", "surveillance": "traffic", "surveillance:type": "ALPR", "surveillance:zone": "traffic", "data_source": "planet_osm"}}, {"type": "Feature", "geometry": {"type": "Point", "coordinates": [59.6202383, 42.4653246]}, "properties": {"id": 6858402671, "addr:country": "UZ", "addr:region": "Qaraqalpaqstan Respublikas\u0131", "direction": "forward", "man_made": "surveillance", "surveillance": "traffic", "surveillance:type": "ALPR", "surveillance:zone": "traffic", "data_source": "planet_osm"}}, {"type": "Feature", "geometry": {"type": "Point", "coordinates": [59.6198854, 42.4648499]}, "properties": {"id": 6858402672, "addr:country": "UZ", "addr:region": "Qaraqalpaqstan Respublikas\u0131", "direction": "forward", "man_made": "surveillance", "surveillance": "traffic", "surveillance:type": "ALPR", "surveillance:zone": "traffic", "data_source": "planet_osm"}}, {"type": "Feature", "geometry": {"type": "Point", "coordinates": [59.60591, 42.458226]}, "properties": {"id": 6879216454, "addr:country": "UZ", "addr:region": "Qaraqalpaqstan Respublikas\u0131", "direction": "-10", "man_made": "surveillance", "surveillance": "traffic", "surveillance:type": "ALPR", "surveillance:zone": "traffic", "data_source": "planet_osm"}}, {"type": "Feature", "geometry": {"type": "Point", "coordinates": [59.6062917, 42.4586484]}, "properties": {"id": 6879216456, "addr:country": "UZ", "addr:region": "Qaraqalpaqstan Respublikas\u0131", "direction": "-105", "man_made": "surveillance", "surveillance": "traffic", "surveillance:type": "ALPR", "surveillance:zone": "traffic", "data_source": "planet_osm"}}, {"type": "Feature", "geometry": {"type": "Point", "coordinates": [59.6222788, 42.4577854]}, "properties": {"id": 6917971450, "addr:country": "UZ", "addr:region": "Qaraqalpaqstan Respublikas\u0131", "direction": "-105", "man_made": "surveillance", "surveillance": "traffic", "surveillance:type": "ALPR", "surveillance:zone": "traffic", "data_source": "planet_osm"}}, {"type": "Feature", "geometry": {"type": "Point", "coordinates": [59.6218821, 42.4579171]}, "properties": {"id": 6917971451, "addr:country": "UZ", "addr:region": "Qaraqalpaqstan Respublikas\u0131", "direction": "170", "man_made": "surveillance", "surveillance": "traffic", "surveillance:type": "ALPR", "surveillance:zone": "traffic", "data_source": "planet_osm"}}, {"type": "Feature", "geometry": {"type": "Point", "coordinates": [59.6216296, 42.4576925]}, "properties": {"id": 6917971452, "addr:country": "UZ", "addr:region": "Qaraqalpaqstan Respublikas\u0131", "direction": "80", "man_made": "surveillance", "surveillance": "traffic", "surveillance:type": "ALPR", "surveillance:zone": "traffic", "data_source": "planet_osm"}}, {"type": "Feature", "geometry": {"type": "Point", "coordinates": [59.6220083, 42.4574496]}, "properties": {"id": 6917971453, "addr:country": "UZ", "addr:region": "Qaraqalpaqstan Respublikas\u0131", "direction": "-10", "man_made": "surveillance", "surveillance": "traffic", "surveillance:type": "ALPR", "surveillance:zone": "traffic", "data_source": "planet_osm"}}, {"type": "Feature", "geometry": {"type": "Point", "coordinates": [59.6671713, 42.5976625]}, "properties": {"id": 7102310489, "addr:country": "UZ", "addr:region": "Qaraqalpaqstan Respublikas\u0131", "man_made": "surveillance", "surveillance:type": "camera", "data_source": "planet_osm"}}, {"type": "Feature", "geometry": {"type": "Point", "coordinates": [59.7272909, 42.6799321]}, "properties": {"id": 7102310495, "addr:country": "UZ", "addr:region": "Qaraqalpaqstan Respublikas\u0131", "camera:type": "dome", "man_made": "surveillance", "surveillance:type": "camera", "traffic_sign:direction": "forward", "data_source": "planet_osm"}}, {"type": "Feature", "geometry": {"type": "Point", "coordinates": [59.7280723, 42.68555]}, "properties": {"id": 7102310496, "addr:country": "UZ", "addr:region": "Qaraqalpaqstan Respublikas\u0131", "camera:type": "dome", "man_made": "surveillance", "surveillance:type": "camera", "traffic_sign:direction": "forward", "data_source": "planet_osm"}}, {"type": "Feature", "geometry": {"type": "Point", "coordinates": [59.7286708, 42.6903021]}, "properties": {"id": 7102310497, "addr:country": "UZ", "addr:region": "Qaraqalpaqstan Respublikas\u0131", "camera:type": "dome", "man_made": "surveillance", "surveillance:type": "camera", "traffic_sign:direction": "forward", "data_source": "planet_osm"}}, {"type": "Feature", "geometry": {"type": "Point", "coordinates": [59.729039, 42.6929168]}, "properties": {"id": 7102310498, "addr:country": "UZ", "addr:region": "Qaraqalpaqstan Respublikas\u0131", "camera:type": "dome", "man_made": "surveillance", "surveillance:type": "camera", "traffic_sign:direction": "forward", "data_source": "planet_osm"}}, {"type": "Feature", "geometry": {"type": "Point", "coordinates": [59.0272368, 43.7658291]}, "properties": {"id": 7127665150, "addr:country": "UZ", "addr:region": "Qaraqalpaqstan Respublikas\u0131", "man_made": "surveillance", "surveillance": "public", "surveillance:type": "ALPR", "surveillance:zone": "traffic", "data_source": "planet_osm"}}, {"type": "Feature", "geometry": {"type": "Point", "coordinates": [59.5523372, 42.5862535]}, "properties": {"id": 7149134509, "addr:country": "UZ", "addr:region": "Qaraqalpaqstan Respublikas\u0131", "man_made": "surveillance", "power": "pole", "surveillance:type": "camera", "data_source": "planet_osm"}}, {"type": "Feature", "geometry": {"type": "Point", "coordinates": [59.6158466, 42.4650757]}, "properties": {"id": 7260466767, "addr:country": "UZ", "addr:region": "Qaraqalpaqstan Respublikas\u0131", "direction": "backward", "man_made": "surveillance", "surveillance": "traffic", "surveillance:type": "ALPR", "surveillance:zone": "traffic", "data_source": "planet_osm"}}, {"type": "Feature", "geometry": {"type": "Point", "coordinates": [59.4447964, 42.4166356]}, "properties": {"id": 7284511132, "addr:country": "UZ", "addr:region": "Qaraqalpaqstan Respublikas\u0131", "camera:type": "dome", "man_made": "surveillance", "surveillance": "public", "surveillance:type": "camera", "surveillance:zone": "town", "data_source": "planet_osm"}}, {"type": "Feature", "geometry": {"type": "Point", "coordinates": [59.444783, 42.4166423]}, "properties": {"id": 7284511133, "addr:country": "UZ", "addr:region": "Qaraqalpaqstan Respublikas\u0131", "camera:type": "dome", "man_made": "surveillance", "surveillance": "public", "surveillance:type": "camera", "surveillance:zone": "town", "traffic_sign:direction": "backward", "data_source": "planet_osm"}}, {"type": "Feature", "geometry": {"type": "Point", "coordinates": [59.4448087, 42.4166287]}, "properties": {"id": 7284511134, "addr:country": "UZ", "addr:region": "Qaraqalpaqstan Respublikas\u0131", "camera:type": "fixed", "man_made": "surveillance", "surveillance": "public", "surveillance:type": "camera", "surveillance:zone": "town", "traffic_sign:direction": "forward", "data_source": "planet_osm"}}, {"type": "Feature", "geometry": {"type": "Point", "coordinates": [59.6053504, 42.4585117]}, "properties": {"id": 7714502122, "addr:country": "UZ", "addr:region": "Qaraqalpaqstan Respublikas\u0131", "direction": "80", "man_made": "surveillance", "surveillance": "traffic", "surveillance:type": "ALPR", "surveillance:zone": "traffic", "data_source": "planet_osm"}}, {"type": "Feature", "geometry": {"type": "Point", "coordinates": [59.6055426, 42.4589334]}, "properties": {"id": 7714502128, "addr:country": "UZ", "addr:region": "Qaraqalpaqstan Respublikas\u0131", "direction": "-190", "man_made": "surveillance", "surveillance": "traffic", "surveillance:type": "ALPR", "surveillance:zone": "traffic", "data_source": "planet_osm"}}, {"type": "Feature", "geometry": {"type": "Point", "coordinates": [59.6055479, 42.458915]}, "properties": {"id": 7714502129, "addr:country": "UZ", "addr:region": "Qaraqalpaqstan Respublikas\u0131", "camera:type": "dome", "man_made": "surveillance", "surveillance": "public", "surveillance:type": "camera", "surveillance:zone": "street", "data_source": "planet_osm"}}, {"type": "Feature", "geometry": {"type": "Point", "coordinates": [59.6237805, 42.441121]}, "properties": {"id": 7749866181, "addr:country": "UZ", "addr:region": "Qaraqalpaqstan Respublikas\u0131", "direction": "50", "man_made": "surveillance", "surveillance": "traffic", "surveillance:type": "ALPR", "surveillance:zone": "traffic", "data_source": "planet_osm"}}, {"type": "Feature", "geometry": {"type": "Point", "coordinates": [59.6238095, 42.4411405]}, "properties": {"id": 7749866182, "addr:country": "UZ", "addr:region": "Qaraqalpaqstan Respublikas\u0131", "camera:direction": "45", "camera:type": "dome", "man_made": "surveillance", "surveillance": "public", "surveillance:type": "camera", "surveillance:zone": "street", "data_source": "planet_osm"}}, {"type": "Feature", "geometry": {"type": "Point", "coordinates": [59.6303976, 42.4456023]}, "properties": {"id": 7749880670, "addr:country": "UZ", "addr:region": "Qaraqalpaqstan Respublikas\u0131", "camera:type": "fixed", "direction": "45", "man_made": "surveillance", "surveillance": "traffic", "surveillance:type": "ALPR", "surveillance:zone": "traffic", "data_source": "planet_osm"}}, {"type": "Feature", "geometry": {"type": "Point", "coordinates": [59.6304137, 42.4456139]}, "properties": {"id": 7749880671, "addr:country": "UZ", "addr:region": "Qaraqalpaqstan Respublikas\u0131", "camera:type": "fixed", "direction": "45", "man_made": "surveillance", "surveillance": "public", "surveillance:type": "ALPR", "surveillance:zone": "traffic", "data_source": "planet_osm"}}, {"type": "Feature", "geometry": {"type": "Point", "coordinates": [59.6310021, 42.4462229]}, "properties": {"id": 7749880674, "addr:country": "UZ", "addr:region": "Qaraqalpaqstan Respublikas\u0131", "direction": "225", "man_made": "surveillance", "maxspeed": "50", "surveillance": "traffic", "surveillance:type": "ALPR", "surveillance:zone": "traffic", "data_source": "planet_osm"}}, {"type": "Feature", "geometry": {"type": "Point", "coordinates": [59.6302912, 42.4460881]}, "properties": {"id": 7783821897, "addr:country": "UZ", "addr:region": "Qaraqalpaqstan Respublikas\u0131", "camera:type": "fixed", "direction": "125", "man_made": "surveillance", "surveillance": "traffic", "surveillance:type": "ALPR", "surveillance:zone": "traffic", "data_source": "planet_osm"}}, {"type": "Feature", "geometry": {"type": "Point", "coordinates": [59.6302626, 42.4461075]}, "properties": {"id": 7783821899, "addr:country": "UZ", "addr:region": "Qaraqalpaqstan Respublikas\u0131", "camera:direction": "125", "camera:type": "dome", "man_made": "surveillance", "surveillance": "public", "surveillance:type": "camera", "surveillance:zone": "street", "data_source": "planet_osm"}}, {"type": "Feature", "geometry": {"type": "Point", "coordinates": [59.6191066, 42.4602135]}, "properties": {"id": 8181551906, "addr:country": "UZ", "addr:region": "Qaraqalpaqstan Respublikas\u0131", "camera:mount": "ceiling", "camera:type": "dome", "location": "roof", "man_made": "surveillance", "surveillance": "public", "surveillance:type": "camera", "surveillance:zone": "town", "data_source": "planet_osm"}}, {"type": "Feature", "geometry": {"type": "Point", "coordinates": [59.6141151, 42.4481822]}, "properties": {"id": 8212164134, "addr:country": "UZ", "addr:region": "Qaraqalpaqstan Respublikas\u0131", "camera:type": "fixed", "man_made": "surveillance", "surveillance:type": "camera", "surveillance:zone": "residential", "data_source": "planet_osm"}}, {"type": "Feature", "geometry": {"type": "Point", "coordinates": [59.6053998, 42.4619587]}, "properties": {"id": 8218520008, "addr:country": "UZ", "addr:region": "Qaraqalpaqstan Respublikas\u0131", "camera:mount": "ceiling", "camera:type": "dome", "location": "roof", "man_made": "surveillance", "surveillance": "public", "surveillance:type": "camera", "surveillance:zone": "town", "data_source": "planet_osm"}}, {"type": "Feature", "geometry": {"type": "Point", "coordinates": [59.6097245, 42.4659492]}, "properties": {"id": 8221719805, "addr:country": "UZ", "addr:region": "Qaraqalpaqstan Respublikas\u0131", "camera:type": "fixed", "man_made": "surveillance", "surveillance": "outdoor", "surveillance:type": "camera", "surveillance:zone": "building", "data_source": "planet_osm"}}, {"type": "Feature", "geometry": {"type": "Point", "coordinates": [59.6127357, 42.4569631]}, "properties": {"id": 8224486079, "addr:country": "UZ", "addr:region": "Qaraqalpaqstan Respublikas\u0131", "camera:mount": "ceiling", "camera:type": "dome", "location": "roof", "man_made": "surveillance", "surveillance": "public", "surveillance:type": "camera", "surveillance:zone": "town", "data_source": "planet_osm"}}, {"type": "Feature", "geometry": {"type": "Point", "coordinates": [59.627232, 42.3948829]}, "properties": {"id": 8264216836, "addr:country": "UZ", "addr:region": "Qaraqalpaqstan Respublikas\u0131", "man_made": "surveillance", "surveillance": "public", "surveillance:zone": "street", "data_source": "planet_osm"}}], "networks": []}