{"type": "FeatureCollection", "features": [{"type": "Feature", "geometry": {"type": "Point", "coordinates": [10.4591407, 48.3472273]}, "properties": {"id": 388792127, "addr:city": "Burtenbach", "addr:country": "DE", "addr:postcode": "89349", "man_made": "surveillance", "data_source": "planet_osm"}}, {"type": "Feature", "geometry": {"type": "Point", "coordinates": [10.4595643, 48.3483907]}, "properties": {"id": 388792128, "addr:city": "Burtenbach", "addr:country": "DE", "addr:postcode": "89349", "man_made": "surveillance", "data_source": "planet_osm"}}, {"type": "Feature", "geometry": {"type": "Point", "coordinates": [10.4571872, 48.3481112]}, "properties": {"id": 388792130, "addr:city": "Burtenbach", "addr:country": "DE", "addr:postcode": "89349", "man_made": "surveillance", "data_source": "planet_osm"}}, {"type": "Feature", "geometry": {"type": "Point", "coordinates": [10.4572095, 48.3470762]}, "properties": {"id": 388792131, "addr:city": "Burtenbach", "addr:country": "DE", "addr:postcode": "89349", "man_made": "surveillance", "data_source": "planet_osm"}}, {"type": "Feature", "geometry": {"type": "Point", "coordinates": [10.3002761, 48.424609]}, "properties": {"id": 420561899, "camera:type": "dome", "check_date": "2025-06-15", "man_made": "surveillance", "surveillance": "outdoor", "surveillance:type": "camera", "surveillance:zone": "building", "data_source": "planet_osm"}}, {"type": "Feature", "geometry": {"type": "Point", "coordinates": [10.3646523, 48.2444911]}, "properties": {"id": 598722653, "addr:city": "Krumbach (Schwaben)", "addr:country": "DE", "addr:housenumber": "29", "addr:postcode": "86381", "addr:street": "Karl-Mantel-Stra\u00dfe", "amenity": "atm", "cash_in": "no", "currency:EUR": "yes", "drive_through": "no", "fee": "some", "man_made": "surveillance", "network": "BankCard ServiceNetz", "opening_hours": "24/7", "operator": "Raiffeisenbank Schwaben Mitte eG", "data_source": "planet_osm"}}, {"type": "Feature", "geometry": {"type": "Point", "coordinates": [10.3702155, 48.2442334]}, "properties": {"id": 1177783835, "addr:city": "Krumbach (Schwaben)", "addr:country": "DE", "addr:housenumber": "30a", "addr:postcode": "86381", "addr:street": "Heinrich-Sinz-Stra\u00dfe", "amenity": "atm", "cash_in": "no", "currency:EUR": "yes", "drive_through": "no", "fee": "some", "man_made": "surveillance", "network": "Sparkassen-Finanzgruppe", "opening_hours": "24/7", "operator": "Sparkasse G\u00fcnzburg-Krumbach", "data_source": "planet_osm"}}, {"type": "Feature", "geometry": {"type": "Point", "coordinates": [10.3106738, 48.4243766]}, "properties": {"id": 2194260176, "camera:mount": "wall", "camera:type": "fixed", "man_made": "surveillance", "mapillary": "1243422992741035", "surveillance:type": "camera", "survey:date": "2018-12-25", "data_source": "planet_osm"}}, {"type": "Feature", "geometry": {"type": "Point", "coordinates": [10.3117421, 48.4248617]}, "properties": {"id": 2245450225, "camera:mount": "pole", "camera:type": "fixed", "man_made": "surveillance", "mapillary": "315151119962750", "surveillance:type": "camera", "survey:date": "2018-12-25", "data_source": "planet_osm"}}, {"type": "Feature", "geometry": {"type": "Point", "coordinates": [10.2013011, 48.4455571]}, "properties": {"id": 7667515280, "camera:mount": "pole", "man_made": "surveillance", "surveillance:type": "camera", "data_source": "planet_osm"}}, {"type": "Feature", "geometry": {"type": "Point", "coordinates": [10.2011586, 48.4455094]}, "properties": {"id": 7667515281, "camera:mount": "pole", "man_made": "surveillance", "surveillance:type": "camera", "data_source": "planet_osm"}}, {"type": "Feature", "geometry": {"type": "Point", "coordinates": [10.3121493, 48.2699063]}, "properties": {"id": 7673782537, "camera:direction": "20", "camera:mount": "pole", "camera:type": "fixed", "height": "5", "man_made": "surveillance", "surveillance": "outdoor", "surveillance:type": "camera", "surveillance:zone": "area", "data_source": "planet_osm"}}, {"type": "Feature", "geometry": {"type": "Point", "coordinates": [10.3124277, 48.2698908]}, "properties": {"id": 7673782538, "camera:direction": "320", "camera:mount": "pole", "camera:type": "fixed", "height": "5", "man_made": "surveillance", "surveillance": "outdoor", "surveillance:type": "camera", "surveillance:zone": "area", "data_source": "planet_osm"}}], "networks": []}