{"type": "FeatureCollection", "features": [{"type": "Feature", "geometry": {"type": "Point", "coordinates": [68.3647442, 25.3910683]}, "properties": {"id": 5800020897, "addr:city": "\u062d\u06cc\u062f\u0631\u0622\u0628\u0627\u062f", "addr:city:en": "Hyderabad", "addr:city:fr": "Hyder\u00e2b\u00e2d", "addr:city:pa": "\u0a39\u0a48\u0a26\u0a30\u0a3e\u0a2c\u0a3e\u0a26", "addr:city:ur": "\u062d\u06cc\u062f\u0631\u0622\u0628\u0627\u062f", "addr:housenumber": "shop# 1, Nearby Dr. Bashir Memon, Nana Bhai Centre Opp. Saify College & Jannat-ul-Hayat, Near Kaka Bakery, Bohri Bazar, Saddar Cantt", "addr:postcode": "71000", "addr:street": "Sydena Tahir Saifuddin Road", "contact:webcam": "https://www.facebook.com/technosolutions110/", "email": "technosolutions110@gmail.com", "man_made": "surveillance", "name": "Techno Solutions", "payment:cash": "yes", "phone": "+92 335 253 5253", "start_date": "October 27, 2017", "surveillance": "camera", "surveillance:type": "camera", "data_source": "planet_osm"}}], "networks": []}