{"type": "FeatureCollection", "features": [{"type": "Feature", "geometry": {"type": "Point", "coordinates": [19.8005799, 48.0945513]}, "properties": {"id": 248552504, "camera:type": "fixed", "description": "V\u00c9DA szupertraffipax", "direction": "30;212", "highway": "speed_camera", "man_made": "surveillance", "maxspeed": "50", "name": "V\u00c9DA kapu", "source": "police.hu", "surveillance:type": "camera", "surveillance:zone": "traffic", "wikidata": "Q25460464", "wikipedia": "hu:V\u00c9DA K\u00f6z\u00fati Intelligens Kamerah\u00e1l\u00f3zat", "data_source": "planet_osm"}}, {"type": "Feature", "geometry": {"type": "Point", "coordinates": [19.972806, 48.0101308]}, "properties": {"id": 1994406025, "camera:type": "fixed", "description": "V\u00c9DA szupertraffipax", "direction": "94;272", "highway": "speed_camera", "man_made": "surveillance", "maxspeed": "40", "name": "V\u00c9DA kapu", "source": "police.hu", "surveillance:type": "camera", "surveillance:zone": "traffic", "wikidata": "Q25460464", "wikipedia": "hu:V\u00c9DA K\u00f6z\u00fati Intelligens Kamerah\u00e1l\u00f3zat", "data_source": "planet_osm"}}, {"type": "Feature", "geometry": {"type": "Point", "coordinates": [19.8076822, 48.0318666]}, "properties": {"id": 8323932883, "amenity": "weighbridge", "camera:mount": "gantry", "camera:type": "fixed", "description": "weight in motion", "highway": "toll_gantry", "man_made": "surveillance", "note": "48+098 km szelv\u00e9ny", "operator": "Nemzeti \u00datd\u00edjfizet\u00e9si Szolg\u00e1ltat\u00f3 Zrt.", "ref": "F15", "service": "weigh_station", "surveillance": "traffic", "surveillance:type": "ALPR", "surveillance:zone": "traffic", "data_source": "planet_osm"}}, {"type": "Feature", "geometry": {"type": "Point", "coordinates": [19.8077826, 48.0319309]}, "properties": {"id": 8355216474, "amenity": "weighbridge", "camera:mount": "gantry", "camera:type": "fixed", "description": "weight in motion", "highway": "toll_gantry", "man_made": "surveillance", "note": "48+098 km szelv\u00e9ny", "operator": "Nemzeti \u00datd\u00edjfizet\u00e9si Szolg\u00e1ltat\u00f3 Zrt.", "ref": "F15", "service": "weigh_station", "surveillance": "traffic", "surveillance:type": "ALPR", "surveillance:zone": "traffic", "data_source": "planet_osm"}}], "networks": []}