{"type": "FeatureCollection", "features": [{"type": "Feature", "geometry": {"type": "Point", "coordinates": [-0.9908219, 53.4179886]}, "properties": {"id": 3399729373, "direction": "80", "fixme": "location approximate", "highway": "speed_camera", "man_made": "surveillance", "maxspeed": "50 mph", "note": "SPECS camera", "source": "survey", "surveillance": "outdoor", "data_source": "planet_osm"}}, {"type": "Feature", "geometry": {"type": "Point", "coordinates": [-0.9907189, 53.418088]}, "properties": {"id": 3399729379, "direction": "270", "highway": "speed_camera", "man_made": "surveillance", "maxspeed": "50 mph", "note": "SPECS camera", "source": "survey", "surveillance": "outdoor", "data_source": "planet_osm"}}, {"type": "Feature", "geometry": {"type": "Point", "coordinates": [-1.0096455, 53.4263661]}, "properties": {"id": 3399729428, "direction": "265", "fixme": "location approximate", "highway": "speed_camera", "man_made": "surveillance", "maxspeed": "50 mph", "note": "SPECS camera", "source": "survey", "surveillance": "outdoor", "data_source": "planet_osm"}}, {"type": "Feature", "geometry": {"type": "Point", "coordinates": [-1.0097153, 53.4261821]}, "properties": {"id": 3399729434, "direction": "80", "fixme": "location approximate", "highway": "speed_camera", "man_made": "surveillance", "maxspeed": "50 mph", "note": "SPECS camera", "source": "survey", "surveillance": "outdoor", "data_source": "planet_osm"}}, {"type": "Feature", "geometry": {"type": "Point", "coordinates": [-0.8755135, 53.4056737]}, "properties": {"id": 3401712237, "direction": "105", "highway": "speed_camera", "man_made": "surveillance", "maxspeed": "50 mph", "note": "SPECS", "source": "search based on cameras to W", "source:geometry": "Bing", "surveillance": "outdoor", "data_source": "planet_osm"}}, {"type": "Feature", "geometry": {"type": "Point", "coordinates": [-0.8754354, 53.4057599]}, "properties": {"id": 3401712239, "direction": "275", "highway": "speed_camera", "man_made": "surveillance", "maxspeed": "50 mph", "note": "SPECS", "source": "search based on cameras to W", "source:geometry": "Bing", "surveillance": "outdoor", "data_source": "planet_osm"}}, {"type": "Feature", "geometry": {"type": "Point", "coordinates": [-0.9115568, 53.407287]}, "properties": {"id": 3401712240, "direction": "225", "highway": "speed_camera", "man_made": "surveillance", "maxspeed": "50 mph", "note": "SPECS", "source": "survey", "source:geometry": "Bing", "surveillance": "outdoor", "data_source": "planet_osm"}}, {"type": "Feature", "geometry": {"type": "Point", "coordinates": [-0.9114993, 53.4071759]}, "properties": {"id": 3401712241, "direction": "60", "highway": "speed_camera", "man_made": "surveillance", "maxspeed": "50 mph", "note": "SPECS", "source": "survey", "source:geometry": "Bing", "surveillance": "outdoor", "data_source": "planet_osm"}}, {"type": "Feature", "geometry": {"type": "Point", "coordinates": [-1.0232894, 53.4236735]}, "properties": {"id": 3401745895, "direction": "0", "man_made": "surveillance", "source": "survey", "surveillance": "public", "surveillance:type": "ALPR", "surveillance:zone": "traffic", "data_source": "planet_osm"}}], "networks": []}