{"type": "FeatureCollection", "features": [{"type": "Feature", "geometry": {"type": "Point", "coordinates": [-44.0902991, -22.5137154]}, "properties": {"id": 1050140458, "addr:city": "Volta Redonda", "addr:street": "Rodovia dos Metal\u00fargicos", "man_made": "surveillance", "name": "C\u00e2mera de Seguran\u00e7a", "data_source": "planet_osm"}}, {"type": "Feature", "geometry": {"type": "Point", "coordinates": [-44.1582155, -22.5497967]}, "properties": {"id": 1111670286, "addr:city": "Barra Mansa", "addr:street": "Rua Doutor Ary Fontenelle", "camera:type": "fixed", "man_made": "surveillance", "name": "C\u00e2mera", "surveillance": "public", "surveillance:type": "camera", "surveillance:zone": "traffic", "data_source": "planet_osm"}}, {"type": "Feature", "geometry": {"type": "Point", "coordinates": [-44.1319077, -22.5255327]}, "properties": {"id": 4341584686, "addr:city": "Volta Redonda", "addr:street": "Via Expressa Afr\u00e2nio Bastos", "man_made": "surveillance", "data_source": "planet_osm"}}, {"type": "Feature", "geometry": {"type": "Point", "coordinates": [-44.1360001, -22.5292973]}, "properties": {"id": 4341588487, "addr:city": "Volta Redonda", "addr:street": "Via Expressa Afr\u00e2nio Bastos", "man_made": "surveillance", "data_source": "planet_osm"}}, {"type": "Feature", "geometry": {"type": "Point", "coordinates": [-44.1666549, -22.5469941]}, "properties": {"id": 4341598837, "addr:city": "Barra Mansa", "addr:street": "Rua Francisco Vilela de Andrade Neto", "man_made": "surveillance", "data_source": "planet_osm"}}, {"type": "Feature", "geometry": {"type": "Point", "coordinates": [-44.1701014, -22.5442578]}, "properties": {"id": 4341601096, "addr:city": "Barra Mansa", "addr:street": "Rua Benedita Helena de Lima", "man_made": "surveillance", "surveillance": "public", "surveillance:zone": "street", "data_source": "planet_osm"}}, {"type": "Feature", "geometry": {"type": "Point", "coordinates": [-44.1664059, -22.5470523]}, "properties": {"id": 4341840882, "addr:city": "Barra Mansa", "addr:street": "Rua Francisco Vilela de Andrade Neto", "camera:type": "fixed", "man_made": "surveillance", "surveillance": "public", "surveillance:type": "camera", "surveillance:zone": "street", "data_source": "planet_osm"}}, {"type": "Feature", "geometry": {"type": "Point", "coordinates": [-44.1773286, -22.5408983]}, "properties": {"id": 4341867401, "addr:city": "Barra Mansa", "addr:street": "Viaduto Doutor Did\u00e1cio de Souza Fonseca", "man_made": "surveillance", "data_source": "planet_osm"}}, {"type": "Feature", "geometry": {"type": "Point", "coordinates": [-44.0954764, -22.5108496]}, "properties": {"id": 4342551528, "addr:city": "Volta Redonda", "addr:street": "Viaduto Nossa Senhora das Gra\u00e7as", "man_made": "surveillance", "name": "C\u00e2mera de Seguran\u00e7a", "data_source": "planet_osm"}}, {"type": "Feature", "geometry": {"type": "Point", "coordinates": [-44.0953236, -22.5097096]}, "properties": {"id": 4342552897, "addr:city": "Volta Redonda", "addr:street": "Avenida Lucas Evangelista de Oliveira Franco", "man_made": "surveillance", "name": "C\u00e2mera de Seguran\u00e7a", "data_source": "planet_osm"}}, {"type": "Feature", "geometry": {"type": "Point", "coordinates": [-44.1173018, -22.5200063]}, "properties": {"id": 4342606043, "addr:city": "Volta Redonda", "addr:street": "Viaduto \u00c1limo Ant\u00f4nio Francisco", "man_made": "surveillance", "name": "C\u00e2mera de Seguran\u00e7a", "data_source": "planet_osm"}}, {"type": "Feature", "geometry": {"type": "Point", "coordinates": [-44.1693818, -22.5426728]}, "properties": {"id": 4344245023, "addr:city": "Barra Mansa", "addr:street": "Ponte Ataulpho Pinto dos Reis", "man_made": "surveillance", "data_source": "planet_osm"}}, {"type": "Feature", "geometry": {"type": "Point", "coordinates": [-44.1769164, -22.54174]}, "properties": {"id": 5964912295, "addr:city": "Barra Mansa", "addr:street": "Viaduto Doutor Did\u00e1cio de Souza Fonseca", "man_made": "surveillance", "data_source": "planet_osm"}}], "networks": []}