{"type": "FeatureCollection", "features": [{"type": "Feature", "geometry": {"type": "Point", "coordinates": [59.6671713, 42.5976625]}, "properties": {"id": 7102310489, "addr:country": "UZ", "addr:region": "Qaraqalpaqstan Respublikas\u0131", "man_made": "surveillance", "surveillance:type": "camera", "data_source": "planet_osm"}}, {"type": "Feature", "geometry": {"type": "Point", "coordinates": [59.7272909, 42.6799321]}, "properties": {"id": 7102310495, "addr:country": "UZ", "addr:region": "Qaraqalpaqstan Respublikas\u0131", "camera:type": "dome", "man_made": "surveillance", "surveillance:type": "camera", "traffic_sign:direction": "forward", "data_source": "planet_osm"}}, {"type": "Feature", "geometry": {"type": "Point", "coordinates": [59.7280723, 42.68555]}, "properties": {"id": 7102310496, "addr:country": "UZ", "addr:region": "Qaraqalpaqstan Respublikas\u0131", "camera:type": "dome", "man_made": "surveillance", "surveillance:type": "camera", "traffic_sign:direction": "forward", "data_source": "planet_osm"}}, {"type": "Feature", "geometry": {"type": "Point", "coordinates": [59.7286708, 42.6903021]}, "properties": {"id": 7102310497, "addr:country": "UZ", "addr:region": "Qaraqalpaqstan Respublikas\u0131", "camera:type": "dome", "man_made": "surveillance", "surveillance:type": "camera", "traffic_sign:direction": "forward", "data_source": "planet_osm"}}, {"type": "Feature", "geometry": {"type": "Point", "coordinates": [59.729039, 42.6929168]}, "properties": {"id": 7102310498, "addr:country": "UZ", "addr:region": "Qaraqalpaqstan Respublikas\u0131", "camera:type": "dome", "man_made": "surveillance", "surveillance:type": "camera", "traffic_sign:direction": "forward", "data_source": "planet_osm"}}, {"type": "Feature", "geometry": {"type": "Point", "coordinates": [59.5523372, 42.5862535]}, "properties": {"id": 7149134509, "addr:country": "UZ", "addr:region": "Qaraqalpaqstan Respublikas\u0131", "man_made": "surveillance", "power": "pole", "surveillance:type": "camera", "data_source": "planet_osm"}}], "networks": []}