{"type": "FeatureCollection", "features": [{"type": "Feature", "geometry": {"type": "Point", "coordinates": [55.9379784, 54.7785989]}, "properties": {"id": 8231184434, "highway": "speed_camera", "man_made": "surveillance", "maxspeed": "90", "surveillance:type": "camera", "data_source": "planet_osm"}}, {"type": "Feature", "geometry": {"type": "Point", "coordinates": [55.9378842, 54.7783971]}, "properties": {"id": 8231184435, "highway": "speed_camera", "man_made": "surveillance", "maxspeed": "90", "surveillance:type": "camera", "data_source": "planet_osm"}}, {"type": "Feature", "geometry": {"type": "Point", "coordinates": [55.9044495, 54.7926639]}, "properties": {"id": 8231184438, "highway": "speed_camera", "man_made": "surveillance", "maxspeed": "90", "surveillance:type": "camera", "data_source": "planet_osm"}}, {"type": "Feature", "geometry": {"type": "Point", "coordinates": [55.9041126, 54.7935207]}, "properties": {"id": 8231184439, "highway": "speed_camera", "man_made": "surveillance", "maxspeed": "90", "surveillance:type": "camera", "data_source": "planet_osm"}}], "networks": []}