{"type": "FeatureCollection", "features": [{"type": "Feature", "geometry": {"type": "Point", "coordinates": [8.7750758, 48.6969968]}, "properties": {"id": 373488167, "addr:city": "Calw", "addr:country": "DE", "addr:housenumber": "2", "addr:postcode": "75365", "addr:street": "Hauptstra\u00dfe", "addr:suburb": "Stammheim", "amenity": "fuel", "brand": "Shell", "brand:wikidata": "Q110716465", "brand:wikipedia": "en:Royal Dutch Shell", "fuel:diesel": "yes", "fuel:e10": "yes", "fuel:octane_95": "yes", "man_made": "surveillance", "name": "Shell", "opening_hours": "Mo-Sa 06:00-22:00; SO 08::00-22:00", "surveillance": "outdoor", "wheelchair": "yes", "data_source": "planet_osm"}}, {"type": "Feature", "geometry": {"type": "Point", "coordinates": [8.7710398, 48.6953574]}, "properties": {"id": 388575739, "amenity": "bank", "atm": "yes", "man_made": "surveillance", "name": "Kreissparkasse Calw", "opening_hours": "Mo-Fr 08:30-12:30, Mo,Tu 14:00-16:00, Th 14:00-17:30", "operator": "Kreissparkasse Calw", "surveillance": "indoor", "wheelchair": "yes", "data_source": "planet_osm"}}, {"type": "Feature", "geometry": {"type": "Point", "coordinates": [8.7696191, 48.6961025]}, "properties": {"id": 413534636, "amenity": "bank", "atm": "yes", "man_made": "surveillance", "name": "Volksbank Calw", "opening_hours": "Mo-Fr 09:00-12:30, Mo,Th 14:00-18:00", "operator": "Volksbank Calw", "surveillance": "indoor", "website": "https://www.diebank.de/", "data_source": "planet_osm"}}, {"type": "Feature", "geometry": {"type": "Point", "coordinates": [8.7324399, 48.7159421]}, "properties": {"id": 600729751, "camera:type": "fixed", "highway": "speed_camera", "man_made": "surveillance", "maxspeed": "50", "note": "Drahbar in beide Fahrtrichtungen", "operator": "Stadt Calw", "surveillance": "public", "data_source": "planet_osm"}}, {"type": "Feature", "geometry": {"type": "Point", "coordinates": [8.7678015, 48.7104855]}, "properties": {"id": 1012868966, "camera:type": "fixed", "highway": "speed_camera", "man_made": "surveillance", "maxspeed": "60", "operator": "Stadt Calw", "surveillance": "public", "data_source": "planet_osm"}}, {"type": "Feature", "geometry": {"type": "Point", "coordinates": [8.7399801, 48.715927]}, "properties": {"id": 1012868974, "camera:type": "fixed", "highway": "speed_camera", "man_made": "surveillance", "maxspeed": "40", "note": "drehbar in beide Fahrtrichtungen", "operator": "Stadt Calw", "surveillance": "public", "data_source": "planet_osm"}}, {"type": "Feature", "geometry": {"type": "Point", "coordinates": [8.6983667, 48.7250734]}, "properties": {"id": 1012868975, "camera:type": "fixed", "highway": "speed_camera", "man_made": "surveillance", "maxspeed": "50", "note": "drehbar in beide Fahrtrichtungen", "operator": "Altburg", "surveillance": "public", "data_source": "planet_osm"}}, {"type": "Feature", "geometry": {"type": "Point", "coordinates": [8.495966, 48.8454192]}, "properties": {"id": 2953871455, "camera:mount": "building", "camera:type": "fixed", "man_made": "surveillance", "surveillance": "outdoor", "surveillance:type": "camera", "surveillance:zone": "area", "data_source": "planet_osm"}}, {"type": "Feature", "geometry": {"type": "Point", "coordinates": [8.6970446, 48.8921407]}, "properties": {"id": 4235180665, "man_made": "surveillance", "surveillance": "public", "data_source": "planet_osm"}}, {"type": "Feature", "geometry": {"type": "Point", "coordinates": [8.7042716, 48.8936589]}, "properties": {"id": 5437811173, "camera:direction": "10-170", "camera:mount": "ceiling", "camera:type": "dome", "check_date": "2022-12-23", "height": "2.5", "man_made": "surveillance", "surveillance": "public", "surveillance:type": "camera", "data_source": "planet_osm"}}, {"type": "Feature", "geometry": {"type": "Point", "coordinates": [8.6378774, 48.9134847]}, "properties": {"id": 6406330786, "man_made": "surveillance", "data_source": "planet_osm"}}, {"type": "Feature", "geometry": {"type": "Point", "coordinates": [8.5330031, 48.7450397]}, "properties": {"id": 6422896678, "camera:mount": "pole", "camera:type": "fixed", "man_made": "surveillance", "surveillance": "outdoor", "surveillance:type": "camera", "surveillance:zone": "town", "data_source": "planet_osm"}}, {"type": "Feature", "geometry": {"type": "Point", "coordinates": [8.5333729, 48.7416308]}, "properties": {"id": 6422896679, "camera:mount": "pole", "man_made": "surveillance", "surveillance": "outdoor", "surveillance:type": "camera", "surveillance:zone": "town", "data_source": "planet_osm"}}], "networks": []}