{"type": "FeatureCollection", "features": [{"type": "Feature", "geometry": {"type": "Point", "coordinates": [4.758002, 44.1026199]}, "properties": {"id": 896584562, "addr:city": "Caderousse", "addr:country": "FR", "camera:type": "fixed", "colour": "white", "man_made": "surveillance", "operator": "Mairie de Caderousse", "postal_code": "84860", "source": "CCPRO 2021", "surveillance": "public", "surveillance:type": "camera", "data_source": "planet_osm"}}, {"type": "Feature", "geometry": {"type": "Point", "coordinates": [4.755778, 44.1042304]}, "properties": {"id": 896587651, "addr:city": "Caderousse", "addr:country": "FR", "colour": "white", "man_made": "surveillance", "operator": "Mairie de Caderousse", "postal_code": "84860", "source": "CCPRO 2021", "surveillance": "public", "surveillance:type": "camera", "data_source": "planet_osm"}}, {"type": "Feature", "geometry": {"type": "Point", "coordinates": [4.7580343, 44.102692]}, "properties": {"id": 896591478, "addr:city": "Caderousse", "addr:country": "FR", "colour": "white", "man_made": "surveillance", "operator": "Mairie de Caderousse", "postal_code": "84860", "source": "CCPRO 2021", "surveillance": "public", "surveillance:type": "camera", "data_source": "planet_osm"}}, {"type": "Feature", "geometry": {"type": "Point", "coordinates": [4.8079746, 44.1377385]}, "properties": {"id": 919804412, "addr:city": "Orange", "addr:country": "FR", "camera:type": "dome", "man_made": "surveillance", "operator": "Mairie d'Orange", "operator:wikidata": "Q113961953", "postal_code": "84100", "ref": "C60", "surveillance": "public", "surveillance:type": "camera", "data_source": "planet_osm"}}, {"type": "Feature", "geometry": {"type": "Point", "coordinates": [4.803266, 44.1524236]}, "properties": {"id": 919906601, "camera:mount": "wall", "camera:type": "dome", "man_made": "surveillance", "operator": "private", "surveillance": "outdoor", "surveillance:type": "camera", "data_source": "planet_osm"}}, {"type": "Feature", "geometry": {"type": "Point", "coordinates": [4.8074987, 44.1373002]}, "properties": {"id": 920441752, "addr:city": "Orange", "addr:country": "FR", "camera:type": "dome", "man_made": "surveillance", "operator": "Mairie d'Orange", "operator:wikidata": "Q113961953", "postal_code": "84100", "ref": "C20", "surveillance": "public", "surveillance:type": "camera", "data_source": "planet_osm"}}, {"type": "Feature", "geometry": {"type": "Point", "coordinates": [4.8397584, 44.1205454]}, "properties": {"id": 922392983, "addr:city": "Orange", "addr:country": "FR", "man_made": "surveillance", "postal_code": "84100", "source": "survey", "surveillance:type": "camera", "data_source": "planet_osm"}}, {"type": "Feature", "geometry": {"type": "Point", "coordinates": [4.8161007, 44.13752]}, "properties": {"id": 1313044323, "addr:city": "Orange", "addr:country": "FR", "camera:type": "dome", "check_date": "2022-04-09", "man_made": "surveillance", "operator": "Mairie d'Orange", "operator:wikidata": "Q113961953", "postal_code": "84100", "ref": "C16", "surveillance": "public", "surveillance:type": "camera", "data_source": "planet_osm"}}, {"type": "Feature", "geometry": {"type": "Point", "coordinates": [4.8510098, 44.1104795]}, "properties": {"id": 1390630576, "camera:direction": "205", "camera:mount": "wall", "camera:type": "fixed", "man_made": "surveillance", "surveillance": "public", "surveillance:type": "camera", "data_source": "planet_osm"}}, {"type": "Feature", "geometry": {"type": "Point", "coordinates": [4.8121698, 44.1339822]}, "properties": {"id": 1438430170, "addr:city": "Orange", "addr:country": "FR", "camera:type": "dome", "colour": "black", "man_made": "surveillance", "operator": "Mairie d'Orange", "operator:wikidata": "Q113961953", "postal_code": "84100", "ref": "C7", "source": "survey", "surveillance": "public", "surveillance:type": "camera", "data_source": "planet_osm"}}, {"type": "Feature", "geometry": {"type": "Point", "coordinates": [4.8093432, 44.1364038]}, "properties": {"id": 1438430174, "addr:city": "Orange", "addr:country": "FR", "camera:type": "dome", "man_made": "surveillance", "postal_code": "84100", "surveillance": "public", "surveillance:type": "camera", "data_source": "planet_osm"}}, {"type": "Feature", "geometry": {"type": "Point", "coordinates": [4.8067474, 44.1369107]}, "properties": {"id": 1438430180, "addr:city": "Orange", "addr:country": "FR", "man_made": "surveillance", "operator": "Mairie d'Orange", "operator:wikidata": "Q113961953", "postal_code": "84100", "ref": "C11", "surveillance": "public", "surveillance:type": "camera", "survey:date": "2018-10-07", "data_source": "planet_osm"}}, {"type": "Feature", "geometry": {"type": "Point", "coordinates": [4.8083752, 44.137222]}, "properties": {"id": 1438430181, "addr:city": "Orange", "addr:country": "FR", "camera:type": "dome", "man_made": "surveillance", "operator": "Mairie d'Orange", "operator:wikidata": "Q113961953", "postal_code": "84100", "ref": "C9", "surveillance": "public", "surveillance:type": "camera", "data_source": "planet_osm"}}, {"type": "Feature", "geometry": {"type": "Point", "coordinates": [4.8084205, 44.1377445]}, "properties": {"id": 1438430183, "addr:street": "Rue Caristie", "camera:type": "dome", "man_made": "surveillance", "operator": "Mairie d'Orange", "operator:wikidata": "Q113961953", "postal_code": "84100", "ref": "C10", "surveillance": "public", "surveillance:type": "camera", "data_source": "planet_osm"}}, {"type": "Feature", "geometry": {"type": "Point", "coordinates": [4.8105699, 44.1353758]}, "properties": {"id": 1440342942, "addr:city": "Orange", "addr:country": "FR", "man_made": "surveillance", "operator": "Mairie d'Orange", "operator:wikidata": "Q113961953", "postal_code": "84100", "ref": "C32", "surveillance": "public", "surveillance:type": "camera", "data_source": "planet_osm"}}, {"type": "Feature", "geometry": {"type": "Point", "coordinates": [4.8108268, 44.1354696]}, "properties": {"id": 1440342949, "addr:city": "Orange", "addr:country": "FR", "camera:type": "dome", "man_made": "surveillance", "operator": "Mairie d'Orange", "operator:wikidata": "Q113961953", "postal_code": "84100", "ref": "C17", "surveillance": "public", "surveillance:type": "camera", "data_source": "planet_osm"}}, {"type": "Feature", "geometry": {"type": "Point", "coordinates": [4.8111448, 44.1355578]}, "properties": {"id": 1440342950, "addr:city": "Orange", "addr:country": "FR", "man_made": "surveillance", "operator": "Mairie d'Orange", "operator:wikidata": "Q113961953", "postal_code": "84100", "ref": "C33", "surveillance": "public", "surveillance:type": "camera", "data_source": "planet_osm"}}, {"type": "Feature", "geometry": {"type": "Point", "coordinates": [4.8094058, 44.1375791]}, "properties": {"id": 1445481890, "camera:type": "dome", "man_made": "surveillance", "operator": "Mairie d'Orange", "operator:wikidata": "Q113961953", "postal_code": "84100", "ref": "C19", "surveillance": "public", "surveillance:type": "camera", "survey:date": "2020-07-11", "data_source": "planet_osm"}}, {"type": "Feature", "geometry": {"type": "Point", "coordinates": [4.8069189, 44.138006]}, "properties": {"id": 1445481896, "addr:city": "Orange", "addr:country": "FR", "camera:type": "dome", "man_made": "surveillance", "operator": "Mairie d'Orange", "operator:wikidata": "Q113961953", "postal_code": "84100", "ref": "C21", "surveillance": "public", "surveillance:type": "camera", "data_source": "planet_osm"}}, {"type": "Feature", "geometry": {"type": "Point", "coordinates": [4.8061446, 44.1386433]}, "properties": {"id": 1445481908, "addr:city": "Orange", "addr:country": "FR", "camera:mount": "pole", "camera:type": "dome", "check_date": "2024-10-04", "man_made": "surveillance", "operator": "Mairie d'Orange", "operator:wikidata": "Q113961953", "postal_code": "84100", "ref": "C3", "surveillance": "public", "surveillance:type": "camera", "data_source": "planet_osm"}}, {"type": "Feature", "geometry": {"type": "Point", "coordinates": [4.8009359, 44.1370398]}, "properties": {"id": 1481367958, "addr:city": "Orange", "addr:country": "FR", "man_made": "surveillance", "postal_code": "84100", "source": "survey 2013", "surveillance": "outdoor", "surveillance:type": "camera", "surveillance:zone": "parking", "data_source": "planet_osm"}}, {"type": "Feature", "geometry": {"type": "Point", "coordinates": [4.9214105, 44.2797546]}, "properties": {"id": 1499894256, "camera:type": "panning", "man_made": "surveillance", "surveillance:type": "camera", "data_source": "planet_osm"}}, {"type": "Feature", "geometry": {"type": "Point", "coordinates": [4.8130912, 44.1340656]}, "properties": {"id": 1524448208, "addr:city": "Orange", "addr:country": "FR", "addr:street": "Rue des Blanchisseurs", "camera:type": "dome", "colour": "black", "man_made": "surveillance", "operator": "Mairie d'Orange", "operator:wikidata": "Q113961953", "postal_code": "84100", "ref": "C15", "surveillance": "public", "surveillance:type": "camera", "data_source": "planet_osm"}}, {"type": "Feature", "geometry": {"type": "Point", "coordinates": [4.8040563, 44.1372393]}, "properties": {"id": 2072675851, "addr:city": "Orange", "addr:country": "FR", "camera:mount": "pole", "camera:type": "dome", "man_made": "surveillance", "operator": "Mairie d'Orange", "operator:wikidata": "Q113961953", "postal_code": "84100", "ref": "C24", "source": "survey", "surveillance": "outdoor", "surveillance:type": "camera", "surveillance:zone": "park", "data_source": "planet_osm"}}, {"type": "Feature", "geometry": {"type": "Point", "coordinates": [4.7956742, 44.1274279]}, "properties": {"id": 2185352646, "addr:city": "Orange", "addr:country": "FR", "camera:mount": "pole", "camera:type": "dome", "man_made": "surveillance", "operator": "Mairie d'Orange", "operator:wikidata": "Q113961953", "postal_code": "84100", "ref": "C40", "source": "survey", "surveillance": "public", "surveillance:type": "camera", "surveillance:zone": "traffic", "data_source": "planet_osm"}}, {"type": "Feature", "geometry": {"type": "Point", "coordinates": [4.8122611, 44.1354863]}, "properties": {"id": 2293747127, "addr:city": "Orange", "addr:country": "FR", "camera:type": "dome", "colour": "black", "man_made": "surveillance", "operator": "Mairie d'Orange", "operator:wikidata": "Q113961953", "postal_code": "84100", "ref": "C6", "source": "survey 2013", "surveillance": "public", "surveillance:type": "camera", "data_source": "planet_osm"}}, {"type": "Feature", "geometry": {"type": "Point", "coordinates": [4.7996054, 44.1344571]}, "properties": {"id": 2294600569, "addr:city": "Orange", "addr:country": "FR", "camera:mount": "pole", "camera:type": "dome", "man_made": "surveillance", "operator": "Mairie d'Orange", "operator:wikidata": "Q113961953", "postal_code": "84100", "ref": "C14", "source": "survey 2013", "surveillance": "public", "surveillance:type": "camera", "data_source": "planet_osm"}}, {"type": "Feature", "geometry": {"type": "Point", "coordinates": [4.805679, 44.1347874]}, "properties": {"id": 2385685957, "addr:city": "Orange", "addr:country": "FR", "camera:mount": "pole", "camera:type": "dome", "man_made": "surveillance", "operator": "Mairie d'Orange", "operator:wikidata": "Q113961953", "postal_code": "84100", "ref": "C26", "source": "survey 2015", "surveillance": "public", "surveillance:type": "camera", "surveillance:zone": "traffic", "data_source": "planet_osm"}}, {"type": "Feature", "geometry": {"type": "Point", "coordinates": [4.8078199, 44.1409795]}, "properties": {"id": 2494769112, "addr:city": "Orange", "addr:country": "FR", "camera:type": "dome", "man_made": "surveillance", "operator": "Mairie d'Orange", "operator:wikidata": "Q113961953", "postal_code": "84100", "ref": "C2", "source": "survey", "surveillance": "public", "surveillance:type": "camera", "survey:date": "2021-09-25", "data_source": "planet_osm"}}, {"type": "Feature", "geometry": {"type": "Point", "coordinates": [4.8083373, 44.1404061]}, "properties": {"id": 2508242096, "addr:city": "Orange", "addr:country": "FR", "man_made": "surveillance", "operator": "Mairie d'Orange", "operator:wikidata": "Q113961953", "postal_code": "84100", "ref": "C22", "source": "survey 2013", "surveillance": "public", "surveillance:type": "camera", "data_source": "planet_osm"}}, {"type": "Feature", "geometry": {"type": "Point", "coordinates": [4.8108414, 44.137497]}, "properties": {"id": 2508273050, "addr:city": "Orange", "addr:country": "FR", "camera:type": "dome", "colour": "black", "man_made": "surveillance", "operator": "Mairie d'Orange", "operator:wikidata": "Q113961953", "postal_code": "84100", "ref": "C4", "source": "survey 2013", "surveillance": "public", "surveillance:type": "camera", "survey:date": "2018-04-21", "data_source": "planet_osm"}}, {"type": "Feature", "geometry": {"type": "Point", "coordinates": [4.8107856, 44.136932]}, "properties": {"id": 2508400198, "addr:city": "Orange", "addr:country": "FR", "colour": "black", "man_made": "surveillance", "operator": "Mairie d'Orange", "operator:wikidata": "Q113961953", "postal_code": "84100", "ref": "C18", "source": "survey 2013", "surveillance": "public", "surveillance:type": "camera", "data_source": "planet_osm"}}, {"type": "Feature", "geometry": {"type": "Point", "coordinates": [4.7723051, 44.1538174]}, "properties": {"id": 2584205865, "addr:city": "Orange", "addr:country": "FR", "camera:type": "fixed", "man_made": "surveillance", "postal_code": "84100", "surveillance": "public", "surveillance:type": "camera", "data_source": "planet_osm"}}, {"type": "Feature", "geometry": {"type": "Point", "coordinates": [4.7472101, 44.3064548]}, "properties": {"id": 2584254695, "man_made": "surveillance", "surveillance": "public", "data_source": "planet_osm"}}, {"type": "Feature", "geometry": {"type": "Point", "coordinates": [4.8073342, 44.1388714]}, "properties": {"id": 2595512105, "addr:city": "Orange", "addr:country": "FR", "man_made": "surveillance", "operator": "Mairie d'Orange", "operator:wikidata": "Q113961953", "postal_code": "84100", "ref": "C37", "source": "survey", "surveillance": "public", "surveillance:type": "camera", "survey:date": "2020-07-11", "data_source": "planet_osm"}}, {"type": "Feature", "geometry": {"type": "Point", "coordinates": [4.8076891, 44.1381887]}, "properties": {"id": 2595513544, "addr:city": "Orange", "addr:country": "FR", "man_made": "surveillance", "operator": "Mairie d'Orange", "operator:wikidata": "Q113961953", "postal_code": "84100", "ref": "C36", "source": "survey 2013", "surveillance": "public", "surveillance:type": "camera", "data_source": "planet_osm"}}, {"type": "Feature", "geometry": {"type": "Point", "coordinates": [4.8026188, 44.1478773]}, "properties": {"id": 2623274313, "addr:city": "Orange", "addr:country": "FR", "camera:type": "dome", "man_made": "surveillance", "operator": "Mairie d'Orange", "operator:wikidata": "Q113961953", "postal_code": "84100", "ref": "C42", "source": "survey 2014", "surveillance:type": "camera", "data_source": "planet_osm"}}, {"type": "Feature", "geometry": {"type": "Point", "coordinates": [4.8039036, 44.1448596]}, "properties": {"id": 2623301416, "addr:city": "Orange", "addr:country": "FR", "camera:mount": "pole", "camera:type": "dome", "man_made": "surveillance", "operator": "Mairie d'Orange", "operator:wikidata": "Q113961953", "postal_code": "84100", "ref": "C41", "source": "survey 2014", "surveillance": "public", "surveillance:type": "camera", "data_source": "planet_osm"}}, {"type": "Feature", "geometry": {"type": "Point", "coordinates": [4.8026037, 44.1397239]}, "properties": {"id": 2626069539, "addr:city": "Orange", "addr:country": "FR", "man_made": "surveillance", "operator": "Mairie d'Orange", "operator:wikidata": "Q113961953", "postal_code": "84100", "ref": "C23", "source": "survey 2014", "surveillance": "public", "surveillance:type": "camera", "data_source": "planet_osm"}}, {"type": "Feature", "geometry": {"type": "Point", "coordinates": [4.8064043, 44.1514232]}, "properties": {"id": 2751966852, "addr:city": "Orange", "addr:country": "FR", "camera:direction": "both", "camera:mount": "pole", "camera:type": "dome", "man_made": "surveillance", "operator": "Mairie d'Orange", "operator:wikidata": "Q113961953", "postal_code": "84100", "ref": "C45", "source": "survey 2014", "surveillance": "public", "surveillance:type": "camera", "surveillance:zone": "traffic", "data_source": "planet_osm"}}, {"type": "Feature", "geometry": {"type": "Point", "coordinates": [4.8806159, 44.0898411]}, "properties": {"id": 4019146291, "addr:city": "Courth\u00e9zon", "addr:country": "FR", "camera": "3", "colour": "black", "highway": "street_lamp", "man_made": "surveillance", "operator": "Mairie de Courth\u00e9zon", "source": "CCPRO 2021", "surveillance": "outdoor", "surveillance:type": "camera", "data_source": "planet_osm"}}, {"type": "Feature", "geometry": {"type": "Point", "coordinates": [4.9000053, 44.1142331]}, "properties": {"id": 4171060156, "addr:city": "Jonqui\u00e8res", "addr:country": "FR", "camera:mount": "pole", "camera:type": "fixed", "highway": "street_lamp", "light:lit": "dusk-dawn", "lit": "yes", "man_made": "surveillance", "operator": "Mairie de Jonqui\u00e8res", "source": "CCPRO 2021", "surveillance": "outdoor", "surveillance:type": "camera", "data_source": "planet_osm"}}, {"type": "Feature", "geometry": {"type": "Point", "coordinates": [4.898874, 44.116513]}, "properties": {"id": 4295091686, "addr:city": "Jonqui\u00e8res", "addr:country": "FR", "camera:type": "dome", "check_date": "2021-08-20", "man_made": "surveillance", "operator": "Mairie de Jonqui\u00e8res", "source": "CCPRO 2021", "surveillance": "outdoor", "surveillance:type": "camera", "data_source": "planet_osm"}}, {"type": "Feature", "geometry": {"type": "Point", "coordinates": [4.9009374, 44.1175134]}, "properties": {"id": 4295091687, "addr:city": "Jonqui\u00e8res", "addr:country": "FR", "camera:type": "dome", "man_made": "surveillance", "operator": "Mairie de Jonqui\u00e8res", "source": "CCPRO 2021", "surveillance": "outdoor", "surveillance:type": "camera", "data_source": "planet_osm"}}, {"type": "Feature", "geometry": {"type": "Point", "coordinates": [4.9018126, 44.1133726]}, "properties": {"id": 4298999439, "addr:city": "Jonqui\u00e8res", "addr:country": "FR", "camera:type": "dome", "check_date": "2021-09-02", "man_made": "surveillance", "operator": "Mairie de Jonqui\u00e8res", "source": "CCPRO 2021", "surveillance": "outdoor", "surveillance:type": "camera", "surveillance:zone": "town", "data_source": "planet_osm"}}, {"type": "Feature", "geometry": {"type": "Point", "coordinates": [4.9031954, 44.1137093]}, "properties": {"id": 4298999440, "addr:city": "Jonqui\u00e8res", "addr:country": "FR", "camera:type": "dome", "check_date": "2021-09-02", "man_made": "surveillance", "operator": "Mairie de Jonqui\u00e8res", "source": "CCPRO 2021", "surveillance": "outdoor", "surveillance:type": "camera", "data_source": "planet_osm"}}, {"type": "Feature", "geometry": {"type": "Point", "coordinates": [4.9031186, 44.1144921]}, "properties": {"id": 4298999441, "addr:city": "Jonqui\u00e8res", "addr:country": "FR", "camera:type": "dome", "check_date": "2021-09-04", "man_made": "surveillance", "operator": "Mairie de Jonqui\u00e8res", "source": "CCPRO 2021", "surveillance": "outdoor", "surveillance:type": "camera", "data_source": "planet_osm"}}, {"type": "Feature", "geometry": {"type": "Point", "coordinates": [4.9000013, 44.1151521]}, "properties": {"id": 4298999442, "addr:city": "Jonqui\u00e8res", "addr:country": "FR", "camera:type": "dome", "check_date": "2021-08-23", "man_made": "surveillance", "operator": "Mairie de Jonqui\u00e8res", "source": "CCPRO 2021", "surveillance": "outdoor", "surveillance:type": "camera", "data_source": "planet_osm"}}, {"type": "Feature", "geometry": {"type": "Point", "coordinates": [4.9003879, 44.115278]}, "properties": {"id": 4298999443, "addr:city": "Jonqui\u00e8res", "addr:country": "FR", "camera:mount": "street_lamp", "camera:type": "dome", "check_date": "2021-08-23", "man_made": "surveillance", "operator": "Mairie de Jonqui\u00e8res", "source": "CCPRO 2021", "surveillance": "outdoor", "surveillance:type": "camera", "data_source": "planet_osm"}}, {"type": "Feature", "geometry": {"type": "Point", "coordinates": [4.8982466, 44.1130152]}, "properties": {"id": 4300775200, "addr:city": "Jonqui\u00e8res", "addr:country": "FR", "camera:type": "dome", "check_date": "2021-09-04", "man_made": "surveillance", "operator": "Mairie de Jonqui\u00e8res", "source": "CCPRO 2021", "surveillance": "outdoor", "surveillance:type": "camera", "surveillance:zone": "parking", "data_source": "planet_osm"}}, {"type": "Feature", "geometry": {"type": "Point", "coordinates": [4.900384, 44.1152814]}, "properties": {"id": 4300775201, "addr:city": "Jonqui\u00e8res", "addr:country": "FR", "camera:direction": "70", "camera:mount": "street_lamp", "camera:type": "fixed", "check_date": "2021-08-23", "man_made": "surveillance", "operator": "Mairie de Jonqui\u00e8res", "source": "CCPRO 2021", "surveillance": "outdoor", "surveillance:type": "camera", "surveillance:zone": "parking", "data_source": "planet_osm"}}, {"type": "Feature", "geometry": {"type": "Point", "coordinates": [4.8989622, 44.1165341]}, "properties": {"id": 4300775202, "addr:city": "Jonqui\u00e8res", "addr:country": "FR", "camera:type": "fixed", "check_date": "2021-08-20", "man_made": "surveillance", "operator": "Mairie de Jonqui\u00e8res", "source": "CCPRO 2021", "surveillance": "outdoor", "surveillance:type": "camera", "data_source": "planet_osm"}}, {"type": "Feature", "geometry": {"type": "Point", "coordinates": [4.8995238, 44.117617]}, "properties": {"id": 4307278826, "addr:city": "Jonqui\u00e8res", "addr:country": "FR", "camera:mount": "pole", "camera:type": "dome", "highway": "street_lamp", "lit": "yes", "man_made": "surveillance", "operator": "Mairie de Jonqui\u00e8res", "source": "survey", "support": "pole", "surveillance": "outdoor", "surveillance:type": "camera", "surveillance:zone": "town", "survey:date": "2022", "data_source": "planet_osm"}}, {"type": "Feature", "geometry": {"type": "Point", "coordinates": [4.7147637, 44.2556975]}, "properties": {"id": 4717401961, "man_made": "surveillance", "surveillance:type": "camera", "surveillance:zone": "traffic", "data_source": "planet_osm"}}, {"type": "Feature", "geometry": {"type": "Point", "coordinates": [4.7436227, 44.2904539]}, "properties": {"id": 4717401963, "man_made": "surveillance", "surveillance:type": "camera", "surveillance:zone": "traffic", "data_source": "planet_osm"}}, {"type": "Feature", "geometry": {"type": "Point", "coordinates": [4.7852433, 44.1347296]}, "properties": {"id": 5034623902, "addr:city": "Orange", "addr:country": "FR", "man_made": "surveillance", "postal_code": "84100", "surveillance:type": "camera", "surveillance:zone": "traffic", "data_source": "planet_osm"}}, {"type": "Feature", "geometry": {"type": "Point", "coordinates": [4.769384, 44.1593437]}, "properties": {"id": 5034973355, "man_made": "surveillance", "surveillance:type": "camera", "data_source": "planet_osm"}}, {"type": "Feature", "geometry": {"type": "Point", "coordinates": [4.7744541, 44.1487552]}, "properties": {"id": 5034973359, "addr:city": "Orange", "addr:country": "FR", "man_made": "surveillance", "postal_code": "84100", "surveillance:type": "camera", "data_source": "planet_osm"}}, {"type": "Feature", "geometry": {"type": "Point", "coordinates": [4.7775266, 44.1436486]}, "properties": {"id": 5034973361, "addr:city": "Orange", "addr:country": "FR", "camera:type": "fixed", "man_made": "surveillance", "postal_code": "84100", "surveillance": "traffic", "surveillance:type": "camera", "data_source": "planet_osm"}}, {"type": "Feature", "geometry": {"type": "Point", "coordinates": [4.7216186, 44.216507]}, "properties": {"id": 5036249132, "man_made": "surveillance", "surveillance:type": "camera", "data_source": "planet_osm"}}, {"type": "Feature", "geometry": {"type": "Point", "coordinates": [4.9197316, 44.229812]}, "properties": {"id": 5190519459, "camera:type": "dome", "distance": "19", "highway": "milestone", "man_made": "surveillance", "note": "Please do not move.", "operator": "CD84", "ref:highway": "D 8", "road:separated": "no", "side": "left", "source:url": "http://www.crige-paca.org/geoportail/geocatalogue.html", "surveillance": "public", "surveillance:type": "camera", "surveillance:zone": "traffic", "data_source": "planet_osm"}}, {"type": "Feature", "geometry": {"type": "Point", "coordinates": [4.9032711, 44.1119596]}, "properties": {"id": 5315211909, "addr:city": "Jonqui\u00e8res", "addr:country": "FR", "camera:type": "dome", "man_made": "surveillance", "operator": "Mairie de Jonqui\u00e8res", "source": "CCPRO 2021", "surveillance": "outdoor", "surveillance:type": "camera", "data_source": "planet_osm"}}, {"type": "Feature", "geometry": {"type": "Point", "coordinates": [4.9059102, 44.1148313]}, "properties": {"id": 5824480102, "addr:city": "Jonqui\u00e8res", "addr:country": "FR", "camera:direction": "109", "camera:mount": "pole", "camera:type": "fixed", "man_made": "surveillance", "operator": "Mairie de Jonqui\u00e8res", "source": "CCPRO 2021", "surveillance": "outdoor", "surveillance:type": "camera", "surveillance:zone": "traffic", "data_source": "planet_osm"}}, {"type": "Feature", "geometry": {"type": "Point", "coordinates": [4.8089281, 44.1384417]}, "properties": {"id": 6401024385, "man_made": "surveillance", "postal_code": "84100", "surveillance:type": "camera", "data_source": "planet_osm"}}, {"type": "Feature", "geometry": {"type": "Point", "coordinates": [4.8844251, 44.0895311]}, "properties": {"id": 7076177068, "addr:city": "Courth\u00e9zon", "addr:country": "FR", "highway": "street_lamp", "man_made": "surveillance", "operator": "Mairie de Courth\u00e9zon", "source": "CCPRO 2021", "surveillance": "outdoor", "surveillance:type": "camera", "data_source": "planet_osm"}}, {"type": "Feature", "geometry": {"type": "Point", "coordinates": [4.8878663, 44.0906244]}, "properties": {"id": 7076245204, "addr:city": "Courth\u00e9zon", "addr:country": "FR", "camera:type": "fixed", "highway": "street_lamp", "man_made": "surveillance", "operator": "Mairie de Courth\u00e9zon", "source": "CCPRO 2021", "surveillance": "outdoor", "surveillance:type": "camera", "data_source": "planet_osm"}}, {"type": "Feature", "geometry": {"type": "Point", "coordinates": [4.880844, 44.0897353]}, "properties": {"id": 7076248053, "addr:city": "Courth\u00e9zon", "addr:country": "FR", "man_made": "surveillance", "operator": "Mairie de Courth\u00e9zon", "source": "CCPRO 2021", "surveillance": "outdoor", "surveillance:type": "camera", "data_source": "planet_osm"}}, {"type": "Feature", "geometry": {"type": "Point", "coordinates": [4.8830203, 44.0885109]}, "properties": {"id": 7076248054, "addr:city": "Courth\u00e9zon", "addr:country": "FR", "highway": "street_lamp", "man_made": "surveillance", "operator": "Mairie de Courth\u00e9zon", "source": "CCPRO 2021", "surveillance": "outdoor", "surveillance:type": "camera", "data_source": "planet_osm"}}, {"type": "Feature", "geometry": {"type": "Point", "coordinates": [4.9009318, 44.1175126]}, "properties": {"id": 7119818307, "addr:city": "Jonqui\u00e8res", "addr:country": "FR", "camera:direction": "20", "camera:type": "fixed", "man_made": "surveillance", "operator": "Mairie de Jonqui\u00e8res", "source": "CCPRO 2021", "surveillance": "outdoor", "surveillance:type": "camera", "data_source": "planet_osm"}}, {"type": "Feature", "geometry": {"type": "Point", "coordinates": [4.8975647, 44.1130906]}, "properties": {"id": 7119818308, "addr:city": "Jonqui\u00e8res", "addr:country": "FR", "camera:direction": "250", "camera:type": "fixed", "man_made": "surveillance", "operator": "Mairie de Jonqui\u00e8res", "source": "CCPRO 2021", "surveillance": "outdoor", "surveillance:type": "camera", "surveillance:zone": "traffic", "data_source": "planet_osm"}}, {"type": "Feature", "geometry": {"type": "Point", "coordinates": [4.9059172, 44.1148529]}, "properties": {"id": 7129245451, "addr:city": "Jonqui\u00e8res", "addr:country": "FR", "camera:direction": "108", "camera:type": "fixed", "man_made": "surveillance", "operator": "Mairie de Jonqui\u00e8res", "source": "CCPRO 2021", "surveillance": "outdoor", "surveillance:type": "camera", "surveillance:zone": "traffic", "data_source": "planet_osm"}}, {"type": "Feature", "geometry": {"type": "Point", "coordinates": [4.9026936, 44.1140847]}, "properties": {"id": 7129267376, "addr:city": "Jonqui\u00e8res", "addr:country": "FR", "camera:type": "dome", "man_made": "surveillance", "operator": "Mairie de Jonqui\u00e8res", "source": "CCPRO 2021", "surveillance": "outdoor", "surveillance:type": "camera", "data_source": "planet_osm"}}, {"type": "Feature", "geometry": {"type": "Point", "coordinates": [4.8277955, 44.132318]}, "properties": {"id": 7176733296, "addr:city": "Orange", "addr:country": "FR", "camera:type": "dome", "man_made": "surveillance", "operator": "Mairie d'Orange", "operator:wikidata": "Q113961953", "postal_code": "84100", "ref": "C51", "surveillance": "public", "surveillance:type": "camera", "data_source": "planet_osm"}}, {"type": "Feature", "geometry": {"type": "Point", "coordinates": [4.8995083, 44.1156839]}, "properties": {"id": 7579904755, "addr:city": "Jonqui\u00e8res", "addr:country": "FR", "camera:type": "panning", "man_made": "surveillance", "operator": "Mairie de Jonqui\u00e8res", "source": "CCPRO 2021", "surveillance": "outdoor", "surveillance:type": "camera", "surveillance:zone": "area", "data_source": "planet_osm"}}, {"type": "Feature", "geometry": {"type": "Point", "coordinates": [4.8384608, 44.1203641]}, "properties": {"id": 8037960784, "addr:city": "Orange", "addr:country": "FR", "camera:direction": "180", "camera:type": "dome", "man_made": "surveillance", "postal_code": "84100", "surveillance": "outdoor", "surveillance:type": "camera", "data_source": "planet_osm"}}, {"type": "Feature", "geometry": {"type": "Point", "coordinates": [4.8090164, 44.1476837]}, "properties": {"id": 8266288593, "camera:mount": "pole", "camera:type": "dome", "man_made": "surveillance", "operator": "Mairie d'Orange", "operator:wikidata": "Q113961953", "ref": "C43", "surveillance": "public", "surveillance:type": "camera", "data_source": "planet_osm"}}, {"type": "Feature", "geometry": {"type": "Point", "coordinates": [4.762295, 44.1794206]}, "properties": {"id": 8269789359, "camera:mount": "pole", "camera:type": "dome", "man_made": "surveillance", "support": "pole", "surveillance:type": "camera", "surveillance:zone": "traffic", "data_source": "planet_osm"}}, {"type": "Feature", "geometry": {"type": "Point", "coordinates": [4.8002949, 44.1312517]}, "properties": {"id": 8306052317, "addr:city": "Orange", "addr:country": "FR", "camera:type": "dome", "man_made": "surveillance", "operator": "Mairie d'Orange", "operator:wikidata": "Q113961953", "postal_code": "84100", "ref": "C39", "surveillance:type": "camera", "data_source": "planet_osm"}}, {"type": "Feature", "geometry": {"type": "Point", "coordinates": [4.8049794, 44.1368072]}, "properties": {"id": 8308850285, "camera:mount": "pole", "camera:type": "dome", "contact:city": "Orange", "contact:postcode": "84100", "man_made": "surveillance", "operator": "Mairie d'Orange", "operator:wikidata": "Q113961953", "ref": "C12", "surveillance": "outdoor", "surveillance:type": "camera", "surveillance:zone": "street", "data_source": "planet_osm"}}], "networks": []}