{"type": "FeatureCollection", "features": [{"type": "Feature", "geometry": {"type": "Point", "coordinates": [-52.6840708, -31.384888]}, "properties": {"id": 4557494092, "addr:city": "Cangu\u00e7u", "addr:postcode": "96600-000", "addr:street": "Avenida Fernando Ferrari", "addr:suburb": "Tri\u00e2ngulo", "camera:direction": "360", "camera:mount": "post", "camera:type": "panning", "man_made": "surveillance", "name": "C\u00e2mera", "surveillance": "public", "surveillance:type": "camera", "surveillance:zone": "police", "data_source": "planet_osm"}}, {"type": "Feature", "geometry": {"type": "Point", "coordinates": [-52.688099, -31.3854201]}, "properties": {"id": 5043054109, "addr:city": "Cangu\u00e7u", "addr:postcode": "96600-000", "addr:street": "Avenida Manoel Pomp\u00edlio da Fonseca", "addr:suburb": "Tri\u00e2ngulo", "camera:direction": "360", "camera:mount": "post", "camera:type": "panning", "man_made": "surveillance", "surveillance": "public", "surveillance:type": "camera", "surveillance:zone": "police", "data_source": "planet_osm"}}, {"type": "Feature", "geometry": {"type": "Point", "coordinates": [-52.6918941, -31.3829959]}, "properties": {"id": 5043054317, "addr:city": "Cangu\u00e7u", "addr:postcode": "96600-000", "addr:street": "Avenida Manoel Pomp\u00edlio da Fonseca", "addr:suburb": "Tri\u00e2ngulo", "man_made": "surveillance", "surveillance": "public", "surveillance:type": "ALPR", "surveillance:zone": "police", "data_source": "planet_osm"}}, {"type": "Feature", "geometry": {"type": "Point", "coordinates": [-52.6741647, -31.3880691]}, "properties": {"id": 5043066084, "addr:city": "Cangu\u00e7u", "addr:postcode": "96600-000", "addr:street": "Rua Firmina de Matos Moreira", "addr:suburb": "Centro", "camera:direction": "360", "camera:mount": "post", "camera:type": "panning", "man_made": "surveillance", "surveillance": "public", "surveillance:type": "camera", "surveillance:zone": "police", "data_source": "planet_osm"}}, {"type": "Feature", "geometry": {"type": "Point", "coordinates": [-52.6734242, -31.394147]}, "properties": {"id": 5043066085, "addr:city": "Cangu\u00e7u", "addr:postcode": "96600-000", "addr:street": "Rua Silveira Martins", "addr:suburb": "Centro", "camera:direction": "360", "camera:mount": "post", "camera:type": "panning", "man_made": "surveillance", "surveillance": "public", "surveillance:type": "camera", "surveillance:zone": "police", "data_source": "planet_osm"}}, {"type": "Feature", "geometry": {"type": "Point", "coordinates": [-52.6710847, -31.3988426]}, "properties": {"id": 5058330699, "camera:direction": "360", "camera:mount": "post", "camera:type": "panning", "man_made": "surveillance", "name": "C\u00e2mera", "surveillance": "public", "surveillance:type": "camera", "surveillance:zone": "area", "data_source": "planet_osm"}}, {"type": "Feature", "geometry": {"type": "Point", "coordinates": [-52.6778603, -31.3986799]}, "properties": {"id": 5064191003, "camera:direction": "360", "camera:mount": "post", "camera:type": "panning", "man_made": "surveillance", "surveillance": "public", "surveillance:type": "camera", "surveillance:zone": "police", "data_source": "planet_osm"}}, {"type": "Feature", "geometry": {"type": "Point", "coordinates": [-52.6791271, -31.3985279]}, "properties": {"id": 5064207584, "camera:direction": "360", "camera:mount": "post", "camera:type": "panning", "man_made": "surveillance", "surveillance": "public", "surveillance:type": "camera", "surveillance:zone": "police", "data_source": "planet_osm"}}], "networks": []}